,Country,Province,District,Sector,Cell,name,stage,subStage,id,Bridge Type,span,latitude,longitude,Individuals Directly Served,Form: Form Name,Community Served 1,Community Served 2,Community Served 3,Community Served 4,Community Served 5,CaseSafeID Form,Bridge Opportunity: Opportunity ID,Community_served,Village
0,Rwanda,Western Province,Rusizi,Giheke,Gakomeye,Buzi,Rejected,Technical,1014107,Suspended,0.0,-2.42056,28.9662,0.0,Project Assessment - 2018.10.29,Buzi,Kabuga,Kagarama,Gacyamo,Gasheke,a1if1000002e51bAAA,006f100000d1fk1,"Buzi, Kabuga, Kagarama, Gacyamo, Gasheke",
1,Rwanda,Western Province,Rusizi,Giheke,Gakomeye,Kamigisha,Rejected,Technical,1014106,Suspended,0.0,-2.42486,28.957259999999998,0.0,Project Assessment - 2018.10.29,Kabuga,Buzi,Gacyamo - Gasheke,Kagarama,Kanoga,a1if1000002e51WAAQ,006f100000d1fjw,"Kabuga, Buzi, Gacyamo - Gasheke, Kagarama, Kanoga",
2,Rwanda,Northern Province,Rulindo,Buyoga,Gahororo-Gipfundo,Gipfundo,Rejected,Technical,1007651,Suspended,8.0,-1.72053,30.08124,0.0,Project Assessment - 2018.8.11,Gapfundo,Rusabira ( Gicumbi),Merezo,Minanire,Karutongo,a1if10000025nz8AAA,006f100000a86I3,"Gapfundo, Rusabira ( Gicumbi), Merezo, Minanire, Karutongo",
9,Rwanda,Southern Province,Kamonyi,Gacurabwenge,Gihga,Karama,Rejected,Technical,1014325,Suspended,0.0,-1.9801259999999998,29.905502000000002,0.0,Project Assessment - 2018.11.15,Karama,Kagarama,Ryabitana,Nyarunyinya,"Gahira cell, karama sector and kayenzi",a1if1000002gMxKAAU,006f100000eesdP,"Karama, Kagarama, Ryabitana, Nyarunyinya, Gahira cell, karama sector and kayenzi",
14,Rwanda,Southern Province,Kamonyi,Gacurabwenge,Gihga,Kagarama,Rejected,Technical,1014328,Suspension,0.0,-1.984548,29.931428000000004,0.0,Project Assessment - 2018.11.16,Kagarama,Ryabitana,Karama,Rugogwe,Karehe,a1if1000002gMyAAAU,006f100000eesiP,"Kagarama, Ryabitana, Karama, Rugogwe, Karehe",
19,Rwanda,Kigali,Gasabo,Gikomero,Kibara-Gasagara,Kibobo-Rwingeyo,Rejected,Technical,1014613,Suspended,0.0,-1.8640990000000002,30.233290000000004,0.0,Project Assessment - 2018.11.30,Kibobo,Gasharu,Nombe,Rwingeyo,Gasagara-Rugwiza,a1if1000002hRNLAA2,006f100000efHCD,"Kibobo, Gasharu, Nombe, Rwingeyo, Gasagara-Rugwiza",
24,Rwanda,Eastern Province,Rwamagana,Kigabiro,Sovu,Rugobagoba,Rejected,Technical,1014461,Suspension,0.0,-2.02333,30.432090000000002,0.0,Project Assessment - 2018.11.24,Rugobagoba,Nyabishunzi,Cyaruhogo,Kabazeye,Kinganzwa,a1if1000002h7FrAAI,006f100000ef6xd,"Rugobagoba, Nyabishunzi, Cyaruhogo, Kabazeye, Kinganzwa",
26,Rwanda,Eastern Province,Rwamagana,Gahengeri-Mwurire,Kagezi-Ntunga,Kabonero,Rejected,Technical,1014611,Suspension,0.0,-1.965611,30.337764,0.0,Project Assessment - 2018.11.30,Kabonero,Akabuga,Gihumuza,Rugenge,Nkira-kadasumbwa,a1if1000002hRLAAA2,006f100000efHBo,"Kabonero, Akabuga, Gihumuza, Rugenge, Nkira-kadasumbwa",
39,Rwanda,Eastern Province,Rwamagana,Gahengeri-Fumbwe,Runyya-Nyagasambu,Cyeru,Rejected,Technical,1014612,Suspension,0.0,-1.896111,30.278146000000003,0.0,Project Assessment - 2018.11.30,Cyeru,Kamasasa-Kabarore,Ruyumba-Ryamuzuka,Rebero-Nyakagunga,Kirehe-Kabeza,a1if1000002hRN1AAM,006f100000efHC3,"Cyeru, Kamasasa-Kabarore, Ruyumba-Ryamuzuka, Rebero-Nyakagunga, Kirehe-Kabeza",
42,Rwanda,Eastern Province,Kirehe,Mushikiri,Rwayikona,Barisuka,Rejected,Technical,1014469,Suspension,0.0,-2.208786,30.695040999999996,0.0,Project Assessment - 2018.11.24,Barisuka,Kabeza,Isangano,Kagega1 and 2,Rwakanyambo,a1if1000002h7GVAAY,006f100000ef6yH,"Barisuka, Kabeza, Isangano, Kagega1 and 2, Rwakanyambo",
61,Rwanda,Eastern Province,Rwamagana,Gahengeri-Rusororo,Runyya-Bisenge,Kabarore,Rejected,Technical,1014608,Suspended,0.0,-1.918336,30.273599,0.0,Project Assessment - 2018.11.30,Kabarore,Ryamuzuka,Karambo,Ruyumba,Kidogo- Gakenyeri,a1if1000002hRGoAAM,006f100000efHBU,"Kabarore, Ryamuzuka, Karambo, Ruyumba, Kidogo- Gakenyeri",
62,Rwanda,Eastern Province,Rwamagana,Gahengeri-Rusororo,Runyya-Bisenga,Karambo,Rejected,Technical,1014607,Suspension,0.0,-1.9266459999999999,30.276659000000002,0.0,Project Assessment - 2018.11.30,Karambo,Kamugasa,Rugagi,Ryasentetere,Gakenkeri,a1if1000002hRGKAA2,006f100000efHBK,"Karambo, Kamugasa, Rugagi, Ryasentetere, Gakenkeri",
65,Rwanda,Eastern Province,Rwamagana,Gahengeri-Mwurire,Kagezi-Ntunga,Rwarugaju,Rejected,Technical,1014610,Suspension,0.0,-1.98212,30.343604,0.0,Project Assessment - 2018.11.30,Rwarugaju,Samatare,Kinyovi-Iramiro,Rugenge,Karuzigura-Kiyovu,a1if1000002hRIpAAM,006f100000efHBe,"Rwarugaju, Samatare, Kinyovi-Iramiro, Rugenge, Karuzigura-Kiyovu",
68,Rwanda,Western Province,Rusizi,Giheke-Bushenge,Gakomeye-Gasheke,Gacyamo,Rejected,Technical,1014108,Suspension,0.0,-2.41855,28.969459999999998,0.0,Project Assessment - 2018.10.29,Gacyamo,Buzi,Kabuga,Kagarama,Gasheke,a1if1000002e51gAAA,006f100000d1fk6,"Gacyamo, Buzi, Kabuga, Kagarama, Gasheke",
70,Rwanda,Western Province,Rusizi,Butare,Rwambogo,Rwengenzi,Identified,Requested,1014104,Suspended,0.0,-2.58744,29.106109999999997,0.0,Project Assessment - 2018.10.29,Gasumo,Kenya - Rushwati,Ndengerezi - Kirwano,Nyaruteja,Kigarama - Cyaruhuza,a1if1000002e51MAAQ,006f100000d1fjm,"Gasumo, Kenya - Rushwati, Ndengerezi - Kirwano, Nyaruteja, Kigarama - Cyaruhuza",
72,Rwanda,Western Province,Rusizi,Giheke,Gakomeye-Rwega,Nyakabanda,Rejected,Technical,1014105,Suspended,0.0,-2.42715,28.95369,0.0,Project Assessment - 2018.10.29,Kanoga,Kagarama,Kabuga,Buzi,Gacyamo - Gasheke,a1if1000002e51RAAQ,006f100000d1fjr,"Kanoga, Kagarama, Kabuga, Buzi, Gacyamo - Gasheke",
73,Rwanda,Western Province,Rusizi,Butare,Rwambogo-Buta,Kigarama,Rejected,Technical,1014103,Suspended,0.0,-2.55734,29.0933,0.0,Project Assessment - 2018.10.29,Kigarama,Bisengo - Nyaruteja,Cyaruhiza - Cyijuru,Murambi - Gitega,Buganzo - Gasine,a1if1000002e51HAAQ,006f100000d1fjh,"Kigarama, Bisengo - Nyaruteja, Cyaruhiza - Cyijuru, Murambi - Gitega, Buganzo - Gasine",
75,Rwanda,Eastern Province,Gatsibo,Gasange-Giti,Viro-Murehe,Kagogo,Rejected,Technical,1014602,Suspended,0.0,-1.758415,30.255139,0.0,Project Assessment - 2018.11.30,Kagogo,GaharaI,GaharaII-Viro,Kabeza,Gatare-Bisika,a1if1000002hRDkAAM,006f100000efHAv,"Kagogo, GaharaI, GaharaII-Viro, Kabeza, Gatare-Bisika",
76,Rwanda,Eastern Province,Rwamagana,Muyumbu-Nyakariro,Bujyujyu-Gishore,Rusave,Rejected,Technical,1014609,Suspended,0.0,-2.013575,30.254666999999998,0.0,Project Assessment - 2018.11.30,Rusave,Karama-Kabeza,Rusave,Nyirabuhene-Matyazo,Ruhanika-Rusagara,a1if1000002hRHSAA2,006f100000efHBZ,"Rusave, Karama-Kabeza, Rusave, Nyirabuhene-Matyazo, Ruhanika-Rusagara",
78,Rwanda,Southern Province,Gisagara,Mamba,Muyaga-Ramba,Gahuru,Rejected,Technical,1013580,Suspension,0.0,-2.5093400000000003,29.90858,0.0,Project Assessment - 2018.9.23,Ruhamagariro,Shyembe,Butezi - Kibumba,Kigangazi,Rusave,a1if1000002YQigAAG,006f100000d7bAq,"Ruhamagariro, Shyembe, Butezi - Kibumba, Kigangazi, Rusave",
83,Rwanda,Southern Province,Gisagara,Mamba-Ntyazo,Gakoma-Gatarara,Runyeshyanga,Rejected,Technical,1013572,Suspension,0.0,-2.40829,29.9468,0.0,Project Assessment - 2018.9.23,Ruhuha,Sokofi,Gakomeye - Kizenga,Rugwiza - Rebero,Kamabuye,a1if1000002YQi2AAG,006f100000d7bA7,"Ruhuha, Sokofi, Gakomeye - Kizenga, Rugwiza - Rebero, Kamabuye",
84,Rwanda,Southern Province,Gisagara,Mamba,Kabumbwe-Mamba-Gakoma,Kinamba,Rejected,Technical,1013571,Suspension,0.0,-2.46509,29.940440000000002,0.0,Project Assessment - 2018.9.23,Rebero,Mamba,Mashenyi,Muhabura - Munopfu,Nunga - Nyarugenge,a1if1000002YQhxAAG,006f100000d7bA2,"Rebero, Mamba, Mashenyi, Muhabura - Munopfu, Nunga - Nyarugenge",
85,Rwanda,Kigali,Gasabo,Shyorongi-Jari,Nkusi,Nyungwe,Rejected,Technical,1007652,Suspended,30.0,-1.857823,29.992177,0.0,Project Assessment - 2018.11.30,Nyagasayo,Munyinya,Kajevuba,Nyarushinga,Gisiza,a1if1000002hRaAAAU,006f100000a86I4,"Nyagasayo, Munyinya, Kajevuba, Nyarushinga, Gisiza",
90,Rwanda,Southern Province,Gisagara,Mamba-Ntyazo,Gakoma-Gatarara,Rwihinda,Rejected,Technical,1013573,Suspension,0.0,-2.434,29.93238,0.0,Project Assessment - 2018.9.23,Sokofi,Rebero - Rugwiza,Gakomeye - Kizenga,Ruhuha,Gatare,a1if1000002YQi7AAG,006f100000d7bAC,"Sokofi, Rebero - Rugwiza, Gakomeye - Kizenga, Ruhuha, Gatare",
99,Rwanda,Western Province,Rusizi,Butare,Nyamiha,Rushwati,Rejected,Technical,1014169,Suspended,0.0,-2.5842099999999997,29.14232,0.0,Project Assessment - 2018.10.29,Rushwati,Gasumo,Karambo,Uwinzovu-Ndengerezi,Kirwano-Munkamba,a1if1000002e6r5AAA,006f100000d1hUW,"Rushwati, Gasumo, Karambo, Uwinzovu-Ndengerezi, Kirwano-Munkamba",
100,Rwanda,Western Province,Rusizi,Butare-Bweyeye,Nymiha-Rasano,Ndengerezi,Rejected,Technical,1014167,Suspended,0.0,-2.58127,28.15265,0.0,Project Assessment - 2018.10.29,Ndengerezi,Kirwano,Munkamba,Karambo,Uwinzovu,a1if1000002e6qvAAA,006f100000d1hU7,"Ndengerezi, Kirwano, Munkamba, Karambo, Uwinzovu",
101,Rwanda,Western Province,Rusizi,Butare,Nyamiha,Munkamba,Rejected,Technical,1014168,Suspended,0.0,-2.57245,29.15343,0.0,Project Assessment - 2018.10.29,Munkamba,Kenya,Kirwano,Ndengezi,Rushwati,a1if1000002e6r0AAA,006f100000d1hUH,"Munkamba, Kenya, Kirwano, Ndengezi, Rushwati",
103,Rwanda,Eastern Province,Nyagatare,Rukomo-Nyagatare,Rukomoii-Gitarane,Isangano,Rejected,Technical,1014387,Suspension,0.0,-1.3941299999999999,30.28182,0.0,Project Assessment - 2018.11.18,Isangano,Berwa-Kabeza,Nyarurama-Nyarubuye,Gakirage,Nkongi,a1if1000002gbNnAAI,006f100000eeuzE,"Isangano, Berwa-Kabeza, Nyarurama-Nyarubuye, Gakirage, Nkongi",
105,Rwanda,Southern Province,Nyaruguru,Ngera,Yaramba,Runyani,Complete,In Service,1007544,Suspension,85.0,-2.71578,29.676070000000003,0.0,Project Assessment - 2018.10.29,Runyami,Musumba,Yaramba,Kirwa,Mbogo,a1if1000002e6q7AAA,006f100000a86GK,"Runyami, Musumba, Yaramba, Kirwa, Mbogo",
108,Rwanda,Eastern Province,Nyagatare,Rukomo,Rukomaii-Rurenge,Kabeza,Rejected,Technical,1014389,Suspension,0.0,-1.36432,30.281940000000002,0.0,Project Assessment - 2018.11.18,Kabeza,Rebero,Nyanjye,Biryogo,Rwiju,a1if1000002gbOHAAY,006f100000eeuzO,"Kabeza, Rebero, Nyanjye, Biryogo, Rwiju",
116,Rwanda,Eastern Province,Nyagatare,Rwimiyaga,Rutungu,Fotorero,Rejected,Technical,1014404,Suspended,0.0,-1.1631719999999999,30.476046000000004,0.0,Project Assessment - 2018.11.18,Rubira,Cyamunyana-Agatovu,Gakagati I- Gakagati II,Bweru,Mwendo-Rugaga,a1if1000002gbSsAAI,006f100000eev0g,"Rubira, Cyamunyana-Agatovu, Gakagati I- Gakagati II, Bweru, Mwendo-Rugaga",
121,Rwanda,Eastern Province,Gatsibo,Gitoki,Karubungo-Nyamirama,Nyagacyamo,Rejected,Technical,1014414,Suspension,0.0,-1.6296,30.343077,0.0,Project Assessment - 2018.11.18,Nyagacyamo,Isangano,Rwamuhinga-Karubungu,Nyabikenke,Rukiri,a1if1000002gbUjAAI,006f100000eev1U,"Nyagacyamo, Isangano, Rwamuhinga-Karubungu, Nyabikenke, Rukiri",
127,Rwanda,Eastern Province,Nyagatare,Karama,Ndego,Gakirage,Rejected,Technical,1014416,Suspended,0.0,-1.365045,30.148671999999998,0.0,Project Assessment - 2018.11.18,Gakirage,Mutete,Kanyami,Murambi,Matereza,a1if1000002gbVDAAY,006f100000eev1e,"Gakirage, Mutete, Kanyami, Murambi, Matereza",
131,Rwanda,Eastern Province,Gatsibo,Gitoki-Kabarore,Bukomane-Kabaroreii,Gakiri,Rejected,Technical,1014420,Suspension,0.0,-1.6298489999999999,30.379611999999998,0.0,Project Assessment - 2018.11.18,Gakiri-Gisaka,Burembo-Rurema,Bukomane,Cyabusheshe cell,Kabingo,a1if1000002gbWfAAI,006f100000eev1y,"Gakiri-Gisaka, Burembo-Rurema, Bukomane, Cyabusheshe cell, Kabingo",
142,Rwanda,Eastern Province,Nyagatare,Karama,Bushara,Isangano-Kabeza,Rejected,Technical,1014393,Suspension,0.0,-1.349094,30.202762,0.0,Project Assessment - 2018.11.18,Isangano,Rurembo,Bushara center,Ihuriro,Kabeza-Nyakibande,a1if1000002gbQIAAY,006f100000eeuzi,"Isangano, Rurembo, Bushara center, Ihuriro, Kabeza-Nyakibande",
149,Rwanda,Eastern Province,Gatsibo,Nyagihanga,Kib-Nyagitabire,Bitaba,Rejected,Technical,1014409,Suspended,0.0,-1.5306879999999998,30.210440999999996,0.0,Project Assessment - 2018.11.18,Bitaba-Kigarama,Bushashara-Murambi,Kukabare-Gashuri,Byimana-Mataba,Rugaragara,a1if1000002gbTqAAI,006f100000eev15,"Bitaba-Kigarama, Bushashara-Murambi, Kukabare-Gashuri, Byimana-Mataba, Rugaragara",
151,Rwanda,Eastern Province,Nyagatare,Karama,Ndego-Kabuga,Matereza,Identified,Requested,1014415,Suspension,0.0,-1.36087,30.181669,0.0,Project Assessment - 2018.11.18,Materaza,Rusoroza,Kanyami,Murambi,Kabuga cell,a1if1000002gbUtAAI,006f100000eev1Z,"Materaza, Rusoroza, Kanyami, Murambi, Kabuga cell",
156,Rwanda,Eastern Province,Nyagatare,Karama-Gitunda,Nyakiga-Nyangari,Murujanjara,Rejected,Technical,1014417,Suspension,0.0,-1.397253,30.163372999999996,0.0,Project Assessment - 2018.11.18,Karama centre,Kavumu,Mabare,Kentarama,Mutumba,a1if1000002gbVNAAY,006f100000eev1j,"Karama centre, Kavumu, Mabare, Kentarama, Mutumba",
157,Rwanda,Southern Province,Nyanza,Rwabicuma-Cyabakamyi,Nyarusange-Nyabyenga,Kamushi,Identified,Requested,1012830,Suspended,50.0,-2.33542,29.67251,0.0,Project Assessment - 2018.8.18,Kamushi,Kamuvunyi B,Rwamagana,Rugwa,Nyabinyenga,a1if1000002Vj9AAAS,006f100000d6mY6,"Kamushi, Kamuvunyi B, Rwamagana, Rugwa, Nyabinyenga",
161,Rwanda,Western Province,Rusizi,Nyakarenzo,Kanoga,Kankenge1,Rejected,Technical,1013926,Suspended,0.0,-2.53862,28.960729999999998,0.0,Project Assessment - 2018.10.16,Kumana,Kanoga,Kamanura,Ryamaraza,Bahuro,a1if1000002n1VGAAY,006f100000d8ApI,"Kumana, Kanoga, Kamanura, Ryamaraza, Bahuro",
162,Rwanda,Southern Province,Gisagara,Muganza,Saga,Uwinyana,Rejected,Technical,1013922,Suspended,0.0,-2.69786,29.90142,0.0,Project Assessment - 2018.10.16,Nyagafumberi,Bucaya,Rwinkuba,Akabacuzi,Nyamiheto,a1if1000002n1MKAAY,006f100000d8AoK,"Nyagafumberi, Bucaya, Rwinkuba, Akabacuzi, Nyamiheto",
164,Rwanda,Western Province,Rusizi,Nyakarenzo,Kabaga-Kabuye,Gihari,Rejected,Technical,1013925,Suspended,0.0,-2.55375,28.94637,0.0,Project Assessment - 2018.10.16,Nyamugari,Kabumbwe,Kanyovu,Kumana - Kanoga,Ryamaraza - Bahuro,a1if1000002n1T5AAI,006f100000d8Ap8,"Nyamugari, Kabumbwe, Kanyovu, Kumana - Kanoga, Ryamaraza - Bahuro",
177,Rwanda,Northern Province,Gicumbi,Muko,Cyamuhda,Mayogi,Rejected,Social,1010847,,38.0,-1.7011990000000001,30.209405,0.0,Project Assessment - 2018.2.23,Rugaragara,Mayogi,Gicuregenya,Mwendo,Kigoma,a1if1000002LsLGAA0,006f100000c5V3o,"Rugaragara, Mayogi, Gicuregenya, Mwendo, Kigoma",
192,Rwanda,Western Province,Karongi,Mubuga,Kagabiro-Ryaruhanga,Nyakabande-Bitaba,Confirmed,,1015561,Suspended,56.0,-2.11713,29.31672,0.0,Project Assessment - 2018.10.14,Nyakabande,Bikenke,Nyabinyenga,Rwamiko,Kigabiro,a1if1000002mrHwAAI,006f100000fHAHX,"Nyakabande, Bikenke, Nyabinyenga, Rwamiko, Kigabiro",
194,Rwanda,Western Province,Karongi,Gishyita,Cyanya-Kigarama,Muryaruzigura,Rejected,Technical,1013868,Suspension,0.0,-2.16278,29.289209999999997,0.0,Project Assessment - 2018.10.14,Gitovu,Mpatsi,Magarama,Gatare,Gitwa,a1if1000002mrIfAAI,006f100000d8895,"Gitovu, Mpatsi, Magarama, Gatare, Gitwa",Gitovu-Gitwa
196,Rwanda,Western Province,Karongi,Mubuga,Kagabiro-Ryaruhanga,Kagarama,Prospecting,,1013867,Suspension,58.0,-2.1383799999999997,29.335040000000003,0.0,Project Assessment - 2018.10.14,Kagarama,Jurwe,Rubazo,Gahabwe village,Kinyege,a1if1000002mrILAAY,006f100000d8890,"Kagarama, Jurwe, Rubazo, Gahabwe village, Kinyege",Kagarama-Jurwe
200,Rwanda,Western Province,Karongi,Gishyita,Musasa,Rwagisasa,Rejected,Technical,1013871,Suspended,0.0,-2.14492,29.301370000000002,0.0,Project Assessment - 2018.10.14,Rwagisasa,Kibaya,Kimbo,Kamunungu,Musebeya,a1if1000002mrLAAAY,006f100000d889K,"Rwagisasa, Kibaya, Kimbo, Kamunungu, Musebeya",Kibaya-Kimbo-Rwagisasa
201,Rwanda,Western Province,Rutsiro,Mushubati,Cyarusera-Kabuga,Mugeri,Complete,In Service,1012457,Suspended,63.0,-2.02408333,29.41472222,0.0,Project Assessment - 2018.7.11,Mugeri,Miraramo,Sanzare,Gihara,Bandamiko,a1if10000024MxBAAU,006f100000cPXEE,"Mugeri, Miraramo, Sanzare, Gihara, Bandamiko",
202,Rwanda,Western Province,Ngororero,Nyange-Ndaro,Bambiro-Bitabage,Sodoma,Identified,,1012823,Suspension,66.0,-2.014133,29.614266999999998,0.0,Project Assessment - 2018.12.8,Kamuyobora,Butare,Gakoma,Murambi,Gasave,a1if1000002qum1AAA,006f100000d6lDD,"Kamuyobora, Butare, Gakoma, Murambi, Gasave",But-Kamuyobora
212,Rwanda,Western Province,Karongi,Bwishyura,Gitarama,Gomba,Identified,Requested,1013873,Suspended,0.0,-2.09219,29.38608,0.0,Project Assessment - 2018.10.14,Gomba,Nyamigina,Kirambo,Kigezi,Kivomo,a1if1000002mrMcAAI,006f100000d889Z,"Gomba, Nyamigina, Kirambo, Kigezi, Kivomo",Gomba-Nyamiga
222,Rwanda,Southern Province,Gisagara,Mamba,Muyaga-Ramba,Bojo,Rejected,Technical,1013574,Suspension,0.0,-2.50203,29.917140000000003,0.0,Project Assessment - 2018.9.23,Ruhamagariro,Shyembe,Butezi - Kibumba,Murambi,Runazi,a1if1000002YQiCAAW,006f100000d7bAH,"Ruhamagariro, Shyembe, Butezi - Kibumba, Murambi, Runazi",
223,Rwanda,Eastern Province,Nyagatare,Kiyombe,Gataba-Kabungo,Rutete,Rejected,Technical,1014792,Suspended,0.0,-1.419195,30.104228000000003,0.0,Project Assessment - 2018.12.12,Rutete,Kwiperu-Rwabashanja,Nyakabungo-Ruhonwa,Rugarama,Rwamushe-Bitare,a1if1000002qxLGAAY,006f100000efhn7,"Rutete, Kwiperu-Rwabashanja, Nyakabungo-Ruhonwa, Rugarama, Rwamushe-Bitare",
227,Rwanda,Northern Province,Musanze,Musanze-Shingiro-Kimonyi,Nyarubuye-Rwambogo-Kibuguzo,Rwunga,Identified,Requested,1013465,Suspended,55.0,-1.492419,29.573354,0.0,Project Assessment - 2018.9.16,Kimbazi,Nyundo,Ndorahe,Rwunga,Tero,a1if1000002YAGAAA4,006f100000d7Q52,"Kimbazi, Nyundo, Ndorahe, Rwunga, Tero",
229,Rwanda,Northern Province,Musanze,Gataraga,Rungu,Nyabirehe~ Nyarubande,Rejected,Technical,1013466,Suspended,0.0,-1.548732,29.515524,0.0,Project Assessment - 2018.9.16,Gahira,Gatondori,Kampande,Nyarubande,Gatovu,a1if1000002YAGFAA4,006f100000d7Q57,"Gahira, Gatondori, Kampande, Nyarubande, Gatovu",
233,Rwanda,Southern Province,Nyaruguru,Cyahinda,Coko,Gitara,Rejected,Technical,1007553,Suspension,30.0,-2.71768,29.59726333,0.0,Project Assessment - 2018.9.16,Gitara,Ryamarembo,Ruko,Coko,Uwamuhizi,a1if1000002YAIGAA4,006f100000a86GT,"Gitara, Ryamarembo, Ruko, Coko, Uwamuhizi",
234,Rwanda,Western Province,Karongi,Gitesi-Rugabano,Rwariro-Rwungu,Kamatabaro,Rejected,Technical,1013713,Suspension,0.0,-2.14826,29.46926,0.0,Project Assessment - 2018.9.28,Karwiru,Rwungu,Rurumbu,Rusekera,Nyabikenke,a1if1000002YulkAAC,006f100000d7jEB,"Karwiru, Rwungu, Rurumbu, Rusekera, Nyabikenke",Karwiru-Rwungu
235,Rwanda,Western Province,Karongi,Rwankuba,Nyakamira-Rubumba,Mburabuturo,Identified,Requested,1013719,Suspended,37.0,-2.18978,29.420209999999997,0.0,Project Assessment - 2018.9.28,Himbo,Mahembe,Gishwati,Kigarama,Rucura,a1if1000002YumOAAS,006f100000d7jEf,"Himbo, Mahembe, Gishwati, Kigarama, Rucura",Mahembe-Himbo
246,Rwanda,Western Province,Karongi,Rwankuba-Mutuntu,Nyakamira-Kivumu,Karambo,Rejected,Technical,1013720,Suspension,0.0,-2.18681,29.42727,0.0,Project Assessment - 2018.9.28,Mahembe,Rucura,Kivumu,Musango,Nyarushekera,a1if1000002YumTAAS,006f100000d7jEk,"Mahembe, Rucura, Kivumu, Musango, Nyarushekera",Mahembe-Kivumu
255,Rwanda,Northern Province,Musanze,Musanze,Kabazungu,Kidendezi,Rejected,Technical,1013471,Suspension,0.0,-1.47301,29.532329999999998,0.0,Project Assessment - 2018.9.16,Kidendezi,Nyabageni,Rucumu,Susa,"Shonero, kamata",a1if1000002YAGeAAO,006f100000d7Q5W,"Kidendezi, Nyabageni, Rucumu, Susa, Shonero, kamata",
257,Rwanda,Western Province,Karongi,Gitesi,Kirambo-Munanira,Ryashyomba,Rejected,Technical,1013712,Suspended,0.0,-2.1234599999999997,29.407629999999997,0.0,Project Assessment - 2018.9.28,Nzabuhara,Nyarucyamo,Nyarusange,Buye,Rwintare,a1if1000002YulVAAS,006f100000d7jE1,"Nzabuhara, Nyarucyamo, Nyarusange, Buye, Rwintare",Nzabuhara-Nyarucyamo
260,Rwanda,Western Province,Nyamasheke,Mahembe,Gisoke,Mugaseke,Identified,Requested,1013721,Suspended,60.0,-2.2169380000000003,29.283485,0.0,Project Assessment - 2018.9.28,Kanyoni,Muramba,Fumba,Kivumu,Kamashinge,a1if1000002YunbAAC,006f100000d7jEu,"Kanyoni, Muramba, Fumba, Kivumu, Kamashinge",
266,Rwanda,Southern Province,Nyaruguru,Nyabimata,Nyabimata,Nyabimata,Identified,Identified in Needs Assessment,1007538,Suspended,18.0,-2.69445,29.45532,0.0,Project Assessment - 2018.9.28,Nyabimata,Gihemvu,Tangabo,Bwerere,Gituntu,a1if1000002Yv7MAAS,006f100000a86GE,"Nyabimata, Gihemvu, Tangabo, Bwerere, Gituntu",
280,Rwanda,Southern Province,Nyaruguru,Rusenge,Cyuna,Cyuna,Rejected,Technical,1007541,Suspension,30.0,-2.706995,29.59134667,0.0,Project Assessment - 2018.9.16,Uwamuhizi,Agasharu,Cyuna,Gitara,Remera,a1if1000002YAI6AAO,006f100000a86GH,"Uwamuhizi, Agasharu, Cyuna, Gitara, Remera",
291,Rwanda,Northern Province,Musanze,Gacaca-Cyivugiza,Gakoro,Bunyereri,Rejected,Technical,1013470,Suspension,0.0,-1.477522,29.714723,0.0,Project Assessment - 2018.9.16,Murora,Cyiri,Nkomero,Cyivugiza,"Cyanya, gasenyi",a1if1000002YAGZAA4,006f100000d7Q5R,"Murora, Cyiri, Nkomero, Cyivugiza, Cyanya, gasenyi",
293,Rwanda,Northern Province,Musanze,Nyange,Kabeza,Nyiragahama,Identified,Requested,1013476,Suspended,0.0,-1.454949,29.616915999999996,0.0,Project Assessment - 2018.9.16,Gahama,Kibingo,Nyarubuye,Garuka,"Mpiriza, kareba",a1if1000002YAH3AAO,006f100000d7Q5v,"Gahama, Kibingo, Nyarubuye, Garuka, Mpiriza, kareba",
297,Rwanda,Southern Province,Nyaruguru,Cyahinda-Muninin,Coko-Rubona,Rubona,Rejected,Technical,1013482,Suspended,0.0,-2.73310167,29.57745167,0.0,Project Assessment - 2018.9.16,Coko,Rubona,Akagera,Ruseke,Gitara,a1if1000002YAHrAAO,006f100000d7Q8F,"Coko, Rubona, Akagera, Ruseke, Gitara",
298,Rwanda,Northern Province,Musanze,Shingiro-Kinigi,Mugari,Rubira,Identified,Requested,1013479,Suspended,0.0,-1.475588,29.531146999999997,0.0,Project Assessment - 2018.9.16,Kimanzi,Terimbere,Kabagabo,Kidendezi,Ngabageni,a1if1000002YAHIAA4,006f100000d7Q6A,"Kimanzi, Terimbere, Kabagabo, Kidendezi, Ngabageni",
299,Rwanda,Northern Province,Burera,Gahunga,Nyangwe-Gisizi,Gasagara,Identified,Requested,1013491,Suspension,0.0,-1.43466,29.6722,0.0,Project Assessment - 2018.9.16,Gasagara,Nyagasozi,Gikoro,Kabagabo,Gisizi,a1if1000002YAJ4AAO,006f100000d7Q9S,"Gasagara, Nyagasozi, Gikoro, Kabagabo, Gisizi",
302,Rwanda,Southern Province,Nyaruguru,Cyahinda,Coko-Cyahd,Rutega,Rejected,Technical,1013483,Suspension,0.0,-2.735675,29.59105333,0.0,Project Assessment - 2018.9.16,Rutega,Coko,Gitara,Ruseke,Rubona,a1if1000002YAHwAAO,006f100000d7Q8K,"Rutega, Coko, Gitara, Ruseke, Rubona",Coko-Rutega
303,Rwanda,Southern Province,Nyaruguru,Cyahinda,Coko,Gitara,Rejected,Technical,1007554,Suspension,30.0,-2.721561,29.596655,0.0,Project Assessment - 2018.9.16,Gitara,Ryamarembo,Ruko,Coko,Uwamuhizi,a1if1000002YAIBAA4,006f100000a86GU,"Gitara, Ryamarembo, Ruko, Coko, Uwamuhizi",
307,Rwanda,Western Province,Karongi,Gitesi,Nyamirga,Karambi,Identified,Requested,1013718,Suspended,55.0,-2.15214,29.41315,0.0,Project Assessment - 2018.9.28,Gisasa,Burega,Rukore,Nzabuhara,Rwintare village,a1if1000002YumJAAS,006f100000d7jEa,"Gisasa, Burega, Rukore, Nzabuhara, Rwintare village",Gisasa-Burega
308,Rwanda,Western Province,Karongi,Gitesi-Rubengera,Gitega-Bubazi,Senga,Rejected,Technical,1013714,Suspension,0.0,-2.0824,29.4245,0.0,Project Assessment - 2018.9.28,Senga,Kigarama,Bugobera,Kamihaho,Muvungu,a1if1000002YulzAAC,006f100000d7jEG,"Senga, Kigarama, Bugobera, Kamihaho, Muvungu",Senga-Kigarama
310,Rwanda,Western Province,Nyamasheke,Mahembe,Gisoke,Nonwe,Identified,Requested,1013717,Suspended,0.0,-2.224749,29.291024,0.0,Project Assessment - 2018.9.28,Kanyoni,Muramba,Fumba,Kivumu,Giko,a1if1000002YumEAAS,006f100000d7jEV,"Kanyoni, Muramba, Fumba, Kivumu, Giko",
318,Rwanda,Western Province,Nyabihu,Rambura-Rurembo,Cyugi-Kabutozi,Gatovu,Rejected,Technical,1007441,Suspended,14.0,-1.6911943999999999,29.5574167,0.0,Project Assessment - 2018.8.17,Cyugi,Kabutozi,Musenyi,Rwanika,Mugote,a1if1000002Vi7NAAS,006f100000a86Ef,"Cyugi, Kabutozi, Musenyi, Rwanika, Mugote",
326,Rwanda,Southern Province,Nyaruguru,Nyabimata,Nyabimata,Murambi,Identified,Identified in Needs Assessment,1007557,Suspended,10.0,-2.68572,29.47124,0.0,Project Assessment - 2018.9.28,Murambi,Mutovu,Bihembe,Rugarama,Kabere,a1if1000002Yv7WAAS,006f100000a86GX,"Murambi, Mutovu, Bihembe, Rugarama, Kabere",
329,Rwanda,Western Province,Nyabihu,Shyira-Rurembo,Muta-Gitega,Nyirantarengwa,Rejected,Technical,1012799,Suspended,0.0,-1.6798400000000002,29.51707,0.0,Project Assessment - 2018.8.17,Cyuve,Rurambo,Cyanika,Ntende,Ruhombo,a1if1000002Vi7DAAS,006f100000d6kqz,"Cyuve, Rurambo, Cyanika, Ntende, Ruhombo",
330,Rwanda,Southern Province,Nyaruguru,Nyabimata,Ruhga,Gasugi,Identified,Identified in Needs Assessment,1007570,Suspended,10.0,-2.6974299999999998,29.433390000000003,0.0,Project Assessment - 2018.9.28,Gasugi,Cyumuzi,Ruhinga,Ndaro,Mutobwe-Tangabo,a1if1000002Yv7CAAS,006f100000a86Gk,"Gasugi, Cyumuzi, Ruhinga, Ndaro, Mutobwe-Tangabo",
331,Rwanda,Southern Province,Nyaruguru,Nyabimata,Nyabimata-Kabere,Kabere,Complete,In Service,1007539,,63.0,-2.6979439999999997,29.446917,0.0,Project Assessment - 2018.9.28,Kabere,Bwerere,Mutobwe,Nyabimata,Gituntu-Tangabo,a1if1000002Yv7HAAS,006f100000a86GF,"Kabere, Bwerere, Mutobwe, Nyabimata, Gituntu-Tangabo",
339,Rwanda,Western Province,Karongi,Murundi-Nyange,Kama-Gaseke,Kinyinya,Rejected,Technical,1014347,Suspension,0.0,-2.07245,29.60469,0.0,Project Assessment - 2018.11.18,Mwunguzi,Ngobagoba,Nzobe,Kiraro,Giko,a1if1000002gaXcAAI,006f100000eeuuO,"Mwunguzi, Ngobagoba, Nzobe, Kiraro, Giko",Mwunguzi-Ngobagoba
362,Rwanda,Western Province,Karongi,Murundi,Nzaratsi-Bukiro,Gatare,Rejected,Technical,1014346,Suspension,0.0,-2.1076099999999998,29.56258,0.0,Project Assessment - 2018.11.18,Gishyikiro,Gitwa,Remera,Nyamyumba,Kabingo,a1if1000002gaUsAAI,006f100000eeuu9,"Gishyikiro, Gitwa, Remera, Nyamyumba, Kabingo",Gishyikiro-Gitwa
370,Rwanda,Southern Province,Gisagara,Kibirizi-Ngoma,Duwani-But,Kivumu,Rejected,Technical,1013725,Suspension,0.0,-2.5914900000000003,29.75931,0.0,Project Assessment - 2018.9.28,Kavumu 1,Kavumu 2,Mubuga,Cyahafi,Bitabire,a1if1000002Yv7lAAC,006f100000d7jHF,"Kavumu 1, Kavumu 2, Mubuga, Cyahafi, Bitabire",
374,Rwanda,Southern Province,Gisagara,Kibirizi-Save,Duwani-Rwanza,Gaseke,Rejected,Technical,1013726,Suspension,0.0,-2.59415,29.778290000000002,0.0,Project Assessment - 2018.9.28,Buhoro,Murambi,Burashi,Rwuya,Cyahafi,a1if1000002Yv7qAAC,006f100000d7jHK,"Buhoro, Murambi, Burashi, Rwuya, Cyahafi",
375,Rwanda,Southern Province,Nyaruguru,Nyabimata,Nyabimata-Samiyonge,Samiyonge,Rejected,Technical,1007545,Suspended,10.0,-2.67962,29.46244,0.0,Project Assessment - 2018.9.28,Murambi,Tangabo,Mazimeru,Bigugu,Nyabimata,a1if1000002Yv7bAAC,006f100000a86GL,"Murambi, Tangabo, Mazimeru, Bigugu, Nyabimata",
377,Rwanda,Southern Province,Gisagara,Mugombwa-Kansi,Baziro-Umuni,Nyabinyenga,Rejected,Technical,1013811,Suspension,0.0,-2.70198,29.812890000000003,0.0,Project Assessment - 2018.10.8,Nyabinyenga,Nyamirama,Nyagatovu - Nyagahuru,Gatare - Nyamure,Rwimbogo - Ruburanjwiri,a1if1000002mDF0AAM,006f100000d7x5o,"Nyabinyenga, Nyamirama, Nyagatovu - Nyagahuru, Gatare - Nyamure, Rwimbogo - Ruburanjwiri",
379,Rwanda,Southern Province,Gisagara,Nyanza-Ngoma,Nyamugari-Nyamirama,Gatarinzira,Identified,Requested,1013805,Suspended,0.0,-2.7759,29.70875,0.0,Project Assessment - 2018.10.8,Gatarinzira,Kigali - Rama,Cyumba - Urutoyi - Agahehe,Bihembe,Nteko,a1if1000002mDERAA2,006f100000d7x5F,"Gatarinzira, Kigali - Rama, Cyumba - Urutoyi - Agahehe, Bihembe, Nteko",
380,Rwanda,Southern Province,Gisagara,Kigembe-Kansi,Rusagara-Akaboti,Gasharu,Rejected,Technical,1013813,Suspended,0.0,-2.7045,29.75324,0.0,Project Assessment - 2018.10.8,Gasharu,Akatera - Kigarama,Nyarukurazo - Nyarunyinya,Gasharu - Gatare,Gatare (Kansi),a1if1000002mDFAAA2,006f100000d7x5y,"Gasharu, Akatera - Kigarama, Nyarukurazo - Nyarunyinya, Gasharu - Gatare, Gatare (Kansi)",
382,Rwanda,Southern Province,Gisagara,Kigembe,Rusagara-Gatovu,Nyarukurazo,Rejected,Technical,1013804,Suspended,0.0,-2.7242,29.754109999999997,0.0,Project Assessment - 2018.10.8,Nyarukurazo,Nyarunyinya,Akatera,Gasharu,Gatare,a1if1000002mDEMAA2,006f100000d7x5A,"Nyarukurazo, Nyarunyinya, Akatera, Gasharu, Gatare",
383,Rwanda,Southern Province,Nyaruguru,Kigembe-Ngeri,Rusagara-Ngeri,Akatera,Rejected,Technical,1007583,Suspension,18.0,-2.71667,29.738640000000004,0.0,Project Assessment - 2018.10.8,Akatera,Kigarama,Nyarukurazo - Nyarunyinya,Gasharu - Gatare (Gatovu Cell ),Gisozi - Kinteko,a1if1000002mDEbAAM,006f100000a86Gx,"Akatera, Kigarama, Nyarukurazo - Nyarunyinya, Gasharu - Gatare (Gatovu Cell ), Gisozi - Kinteko",
384,Rwanda,Southern Province,Gisagara,Kigembe-Kansi,Impga-Akaboti,Akadogo,Rejected,Technical,1013812,Suspension,0.0,-2.70192,29.762179999999997,0.0,Project Assessment - 2018.10.8,Akadogo,Akakijugujugu,Nyarunyinya,Gatare (Gatovu Cell ),Gatare (Akabogoti Cell),a1if1000002mDF5AAM,006f100000d7x5t,"Akadogo, Akakijugujugu, Nyarunyinya, Gatare (Gatovu Cell ), Gatare (Akabogoti Cell)",
391,Rwanda,Southern Province,Gisagara,Nyanza-Ngoma,Nyamugari-Nyamirama,Sare,Identified,Requested,1013806,Suspended,0.0,-2.79714,29.69812,0.0,Project Assessment - 2018.10.8,Sare,Rugogwe - Akayange,Rwamiko,Bihembe,Kanyamaganda - Nteko,a1if1000002mDEWAA2,006f100000d7x5K,"Sare, Rugogwe - Akayange, Rwamiko, Bihembe, Kanyamaganda - Nteko",
392,Rwanda,Southern Province,Gisagara,Mukindo,Nyabisagara-Gitega,Rususa,Rejected,Technical,1013807,Suspended,0.0,-2.7410200000000002,29.856240000000003,0.0,Project Assessment - 2018.10.8,Rususa,Gatare - Butare,Nturubuye,Nyabikoni,Akabati - Agatunda,a1if1000002mDEgAAM,006f100000d7x5P,"Rususa, Gatare - Butare, Nturubuye, Nyabikoni, Akabati - Agatunda",
393,Rwanda,Southern Province,Gisagara,Nyanza,Umubanga,Maheresho,Rejected,Technical,1013808,Suspension,0.0,-2.77338,29.755029999999998,0.0,Project Assessment - 2018.10.8,Maheresho,Akinyana,Urukeri,Remera,Akamabuye,a1if1000002mDElAAM,006f100000d7x5Z,"Maheresho, Akinyana, Urukeri, Remera, Akamabuye",
396,Rwanda,Northern Province,Gicumbi,Bwis√¨ge,Bwisige,Kavuruga,Rejected,Technical,1010580,,0.0,-1.5751879999999998,30.144215000000003,0.0,Project Assessment - 2018.2.2,Kavuruga,Nyarwina,Rukomo,Ruvune,Rwarurema,a1if1000002LPa1AAG,006f100000biKAf,"Kavuruga, Nyarwina, Rukomo, Ruvune, Rwarurema",
406,Rwanda,Southern Province,Gisagara,Save,Munazi-Rwanza,Cyogo,Rejected,Technical,1013729,Suspension,0.0,-2.56425,29.78521,0.0,Project Assessment - 2018.9.28,Gitwa,Gakombe,Rweserezo,Ryamuguri,Akarambo,a1if1000002Yv85AAC,006f100000d7jI3,"Gitwa, Gakombe, Rweserezo, Ryamuguri, Akarambo",
407,Rwanda,Southern Province,Gisagara,Musha,Bukanyana-Gatovu,Nyirakimene,Rejected,Technical,1013732,Suspension,0.0,-2.52261,29.86105,0.0,Project Assessment - 2018.9.28,Gihinga,Bukinanyana,Rugarama,Gaseke - Nyagasambu,Nyabitare - Cyayi,a1if1000002Yv8KAAS,006f100000d7jII,"Gihinga, Bukinanyana, Rugarama, Gaseke - Nyagasambu, Nyabitare - Cyayi",
408,Rwanda,Southern Province,Gisagara,Kibirizi-Kansi,Ruturo-Nyange,Kigarama,Rejected,Technical,1013728,Suspension,0.0,-2.65762,29.819809999999997,0.0,Project Assessment - 2018.9.28,Kigarama,Karengera,Mpinga,Kabogoti,Kigarama (on the RHS ),a1if1000002Yv80AAC,006f100000d7jHy,"Kigarama, Karengera, Mpinga, Kabogoti, Kigarama (on the RHS )",
411,Rwanda,Western Province,Nyamasheke,Kabengera-Nyakabuye,Higiro-Kamanu,Rujeberi,Rejected,Technical,1014131,Suspended,0.0,-2.54704093,29.03581174,0.0,Project Assessment - 2018.10.29,Rujeberi,Rukunguri-Mpinga,Muhora-Gitunda,Mukondo-Gasebeya-Nyakagoma,Gatare-Nyeshati-Gishagara,a1if1000002e6jaAAA,006f100000d1hGe,"Rujeberi, Rukunguri-Mpinga, Muhora-Gitunda, Mukondo-Gasebeya-Nyakagoma, Gatare-Nyeshati-Gishagara",
412,Rwanda,Western Province,Nyamasheke,Bushenge,Gasheke,Kigenge-Kamayenga,Rejected,Technical,1014125,Suspended,0.0,-2.43036899,28.98131295,0.0,Project Assessment - 2018.10.29,Kigenge_Nyamikingo,Gikombe-Gitwa,Kamucyamo-Gasheke-Rwashyamba,Kamayenga,Bugungu-Kanoga,a1if1000002e6jGAAQ,006f100000d1hF7,"Kigenge_Nyamikingo, Gikombe-Gitwa, Kamucyamo-Gasheke-Rwashyamba, Kamayenga, Bugungu-Kanoga",
413,Rwanda,Western Province,Nyamasheke,Bushenge-Giheke,Gasheke-Gakomeye,Gitwa,Rejected,Technical,1014126,Suspended,0.0,-2.42782026,28.96789415,0.0,Project Assessment - 2018.10.29,Gitwa,Rwamashyamba- Kamucyamu,Kigenge- Gikomero,Gacyamu- Buzi,Kagarama-Mubuga,a1if1000002e6jLAAQ,006f100000d1hFb,"Gitwa, Rwamashyamba- Kamucyamu, Kigenge- Gikomero, Gacyamu- Buzi, Kagarama-Mubuga",
414,Rwanda,Western Province,Nyamasheke,Shangi,Mugera-Burimba,Karuhigi,Rejected,Technical,1014124,Suspended,0.0,-2.38012159,29.04157223,0.0,Project Assessment - 2018.10.29,Karuhigi,Karuhatana_ Karugero,Rwonga_Kavu,Nyakibingo_ Bweranyange,Rubaye_ Nyakagano,a1if1000002e6j6AAA,006f100000d1hEY,"Karuhigi, Karuhatana_ Karugero, Rwonga_Kavu, Nyakibingo_ Bweranyange, Rubaye_ Nyakagano",
415,Rwanda,Northern Province,Rulindo,Kisaro-Miyove,Sayo-Gakenke,Rusumo,Identified,Requested,1013737,Suspended,0.0,-1.6541299999999999,30.01517,0.0,Project Assessment - 2018.9.28,Rusumo,Nyamiyaga,Kibanda-Cyasure,Kirwa,Rugandu_Nyarurambe,a1if1000002YvWnAAK,006f100000d7jMt,"Rusumo, Nyamiyaga, Kibanda-Cyasure, Kirwa, Rugandu_Nyarurambe",
417,Rwanda,Western Province,Nyamasheke,Nyabitekeri,Muyange-Kigabiro,Cyamuti,Rejected,Technical,1014122,Suspended,0.0,-2.33294045,29.02570225,0.0,Project Assessment - 2018.10.29,Cyamuti,Rweru,Gahabwa,Buhokoro,Taba,a1if1000002e6j1AAA,006f100000d1hEE,"Cyamuti, Rweru, Gahabwa, Buhokoro, Taba",
419,Rwanda,Southern Province,Nyaruguru,Ruheru,Uwumusebeya,Gakaranka,Rejected,Technical,1007542,Suspended,17.0,-2.77593,29.4562,0.0,Project Assessment - 2018.10.10,Gakaranka,Rugote,Mubuga,Ruyenzi,Zirambi,a1if1000002mJ6sAAE,006f100000a86GI,"Gakaranka, Rugote, Mubuga, Ruyenzi, Zirambi",Gakaranka-Rugote
422,Rwanda,Southern Province,Nyaruguru,Ruramba-Kivu,Gabiro-Kivu,Bukoro,Identified,Requested,1014129,Suspended,55.0,-2.61265,29.508770000000002,0.0,Project Assessment - 2018.10.29,Bukoro,Ryamuhumbi,Kansi,Gorwe,Kivu,a1if1000002e6jQAAQ,006f100000d1hGA,"Bukoro, Ryamuhumbi, Kansi, Gorwe, Kivu",
426,Rwanda,Southern Province,Ruhango,Kinihira-Mwendo,Nyabibugu-Muyunzwe,Kiryango,Rejected,Technical,1010428,Suspended,0.0,-2.15158,30.65636,0.0,Project Assessment - 2018.12.12,Ruhuha,Gasiza,Muyunzwe,Nyarutovu,Karambo,a1if1000002qxlfAAA,006f100000bh0WY,"Ruhuha, Gasiza, Muyunzwe, Nyarutovu, Karambo",
444,Rwanda,Southern Province,Huye,Karama,Kibgo,Zaga,Rejected,Technical,1007378,Suspension,19.0,-2.60378,29.664479999999998,0.0,Project Assessment - 2018.9.17,Zaga,Agatovu,Gasharu,Butare,Marimba - Akarambo,a1if1000002YAKwAAO,006f100000a86De,"Zaga, Agatovu, Gasharu, Butare, Marimba - Akarambo",
445,Rwanda,Southern Province,Huye,Karama,Gahororo-Muhembe,Uwarugondo,Rejected,Technical,1007377,Suspension,16.0,-2.63101,29.63617,0.0,Project Assessment - 2018.9.17,Uwarugondo,Muyange,Isangano,Cyetete,Raranzige,a1if1000002YAL1AAO,006f100000a86Dd,"Uwarugondo, Muyange, Isangano, Cyetete, Raranzige",
453,Rwanda,Southern Province,Huye,Simbi,Cyendajuru-Mugobore,Cyendajuru,Rejected,Technical,1013503,Suspension,0.0,-2.51947,29.6697,0.0,Project Assessment - 2018.9.17,Cyendajuru,Kigarama,Rwatsi,Nyarurama,Mugobore,a1if1000002YAKXAA4,006f100000d7QQT,"Cyendajuru, Kigarama, Rwatsi, Nyarurama, Mugobore",
455,Rwanda,Southern Province,Huye,Gishamvu,Ryakibogo,Gasekebuye,Rejected,Technical,1013505,Suspended,0.0,-2.6301900000000002,29.71337,0.0,Project Assessment - 2018.9.17,Gasekebuye,Rwimbogo,Gitwa,Kidahire,Gakombe - Impinga,a1if1000002YAKhAAO,006f100000d7QQd,"Gasekebuye, Rwimbogo, Gitwa, Kidahire, Gakombe - Impinga",
456,Rwanda,Southern Province,Huye,Gishamvu,Nyumba,Nyumba,Rejected,Technical,1013508,Suspended,0.0,-2.66388,29.692759999999996,0.0,Project Assessment - 2018.9.17,Busoro,Umunyinya - Cyambwe,Kabeza- Rebero - Akabere,Gasyankingi - Nyagatama,Akagahaya - Gishamvu,a1if1000002YAL6AAO,006f100000d7QSo,"Busoro, Umunyinya - Cyambwe, Kabeza- Rebero - Akabere, Gasyankingi - Nyagatama, Akagahaya - Gishamvu",
460,Rwanda,Southern Province,Huye,Mukura,Buvumu-Cyeru,Rujumbura,Rejected,Technical,1007381,Suspension,10.0,-2.68664,29.75706,0.0,Project Assessment - 2018.9.17,Rujumbura,Taba - Mpinga,Nyagasambu - Kabeza,Nyarusambu - Nyagisenyi,Rugarama - Akakinka - Kimirama,a1if1000002YALLAA4,006f100000a86Dh,"Rujumbura, Taba - Mpinga, Nyagasambu - Kabeza, Nyarusambu - Nyagisenyi, Rugarama - Akakinka - Kimirama",
461,Rwanda,Southern Province,Huye,Karama,Kibgo-Gahororo,Kinyamaganga,Rejected,Technical,1013510,Suspension,0.0,-2.61104,29.654059999999998,0.0,Project Assessment - 2018.9.17,Zaga,Agatovu,Gasharu,Butare,Muyange,a1if1000002YALQAA4,006f100000d7QTX,"Zaga, Agatovu, Gasharu, Butare, Muyange",
462,Rwanda,Southern Province,Huye,Mukura,Rango-A,Remera,Identified,Identified in Needs Assessment,1007380,Suspension,17.0,-2.66052,29.746440000000003,0.0,Project Assessment - 2018.9.17,Remera,Gaseke,Mpinga,Nyagasambu - Kabeza,Taba - Rujumbura,a1if1000002YALGAA4,006f100000a86Dg,"Remera, Gaseke, Mpinga, Nyagasambu - Kabeza, Taba - Rujumbura",
491,Rwanda,Western Province,Nyamasheke,Gihombo,Kibgo,Nyarunyinya~Rwabisindu,Rejected,Technical,1013882,Suspended,0.0,-2.183169,29.262155,0.0,Project Assessment - 2018.10.14,Nyarunyinya,Kigarama,Gituruka,Rwabisindu,Rusuzumiro,a1if1000002muq6AAA,006f100000d88DM,"Nyarunyinya, Kigarama, Gituruka, Rwabisindu, Rusuzumiro",
492,Rwanda,Southern Province,Huye,Kigoma-Maraba,,Karambi,Complete,In Service,1007374,Suspension,50.0,-2.5133330000000003,29.612778000000002,12500.0,Project Assessment - 2018.7.27,Gasumba,Kanyinya,Kabuye,Buremera,Shanga,a1if10000024pPuAAI,006f100000a86Da,"Gasumba, Kanyinya, Kabuye, Buremera, Shanga",
499,Rwanda,Northern Province,Musanze,Remera,Murwa,Kibaribari,Rejected,Technical,1013342,Suspension,0.0,-1.537665,29.700128000000003,0.0,Project Assessment - 2018.9.9,Ngenzi,Kabashima,Bukara,Mugogo,Mikamo,a1if1000002XitnAAC,006f100000d7EVY,"Ngenzi, Kabashima, Bukara, Mugogo, Mikamo",
501,Rwanda,Southern Province,Huye,Rusatira,Kimirehe-Kiruhura,Rubanga,Rejected,Technical,1013332,Suspended,0.0,-2.46826,29.771009999999997,0.0,Project Assessment - 2018.9.9,Rubanga,Nyarutovu,Kavumu,Nyarugenge,Nyamuko,a1if1000002XghVAAS,006f100000d7ETD,"Rubanga, Nyarutovu, Kavumu, Nyarugenge, Nyamuko",
502,Rwanda,Northern Province,Musanze,Musanze,Cyabagarura,Kageyo,Rejected,Technical,1013345,Suspension,0.0,-1.491395,29.626728999999997,0.0,Project Assessment - 2018.9.9,Kageyo,"Gaturo, Rugeyo",Nyiraruhengeri,Kungo,Karunyura,a1if1000002XixLAAS,006f100000d7EVn,"Kageyo, Gaturo, Rugeyo, Nyiraruhengeri, Kungo, Karunyura",
504,Rwanda,Western Province,Nyamasheke,Shangi-Bushekeri,Mataba,Mpishyi,Rejected,Technical,1013879,Suspended,0.0,-2.4228169999999998,29.043546000000003,0.0,Project Assessment - 2018.10.14,Mpishyi,Rwabagoyi,Ruzinga,Gasharu,Entire shangi sector,a1if1000002muoUAAQ,006f100000d88D7,"Mpishyi, Rwabagoyi, Ruzinga, Gasharu, Entire shangi sector",
512,Rwanda,Southern Province,Nyaruguru,Ngoma,Nyamirama,Ryakanyamiganda,Under Construction,,1007580,Suspended,35.0,2.79415,29.6986,0.0,Project Assessment - 2018.10.10,Ryakanyamiganda,Akabuye,Sare,Rwamiko,Bihembe,a1if1000002mJTSAA2,006f100000a86Gu,"Ryakanyamiganda, Akabuye, Sare, Rwamiko, Bihembe",Ryakanyamiga
513,Rwanda,Western Province,Rusizi,Nyakarenzo,Kanoga,Rubindi,Rejected,Technical,1013909,Suspended,0.0,-2.54605,28.96095,0.0,Project Assessment - 2018.10.16,Kanoga,Kamanura,Kumana,Bahuro,Ryamaraza,a1if1000002n1IoAAI,006f100000d8Aig,"Kanoga, Kamanura, Kumana, Bahuro, Ryamaraza",
515,Rwanda,Southern Province,Nyamagabe,Gatare,Shyeru,Rwangambibi,Identified,Identified in Needs Assessment,1007465,Suspension,40.0,-2.345116,29.433870000000002,0.0,Project Assessment - 2018.8.25,Bimba,"Kagusa, ruhanga",Rwangambibi,Rucunda,Mushubi,a1if1000002VmytAAC,006f100000a86F3,"Bimba, Kagusa, ruhanga, Rwangambibi, Rucunda, Mushubi",
516,Rwanda,Western Province,Nyamasheke,Cyato,Bisumo,Gasasa~ mutuntu,Rejected,Technical,1013891,Suspended,0.0,-2.392599,29.239326000000002,0.0,Project Assessment - 2018.10.14,Gasasa,"Tsinduka, Munini",Mutuntu,Kayo,Rugarama,a1if1000002mwPjAAI,006f100000d88IM,"Gasasa, Tsinduka, Munini, Mutuntu, Kayo, Rugarama",
522,Rwanda,Western Province,Nyamasheke,Cyato,Rugali-Murambi,Nyakabingo,Rejected,Technical,1013890,Suspended,0.0,-2.393212,29.219801,0.0,Project Assessment - 2018.10.14,Gakenke,Rwumba,Karambo,Nyakabingo,Rugarama,a1if1000002mwMQAAY,006f100000d88IH,"Gakenke, Rwumba, Karambo, Nyakabingo, Rugarama",
531,Rwanda,Southern Province,Huye,Rusatira-Gikonko,Kimuna-Gasagara,Nyabusunzu,Rejected,Technical,1013331,Suspension,0.0,-2.4851,29.809040000000003,0.0,Project Assessment - 2018.9.9,Nyabusunzu,Cyimigo,Murambi,Mugusa,Bibungo,a1if1000002XghBAAS,006f100000d7ET8,"Nyabusunzu, Cyimigo, Murambi, Mugusa, Bibungo",
532,Rwanda,Northern Province,Burera,Gitovu,Runoga,Kwa moja,Rejected,Technical,1013321,Suspended,0.0,-1.52521,29.78268,0.0,Project Assessment - 2018.9.9,Kiraro,Musekera,Remya,Bushima,Mutungo and Gatenga,a1if1000002XfFzAAK,006f100000d7EQx,"Kiraro, Musekera, Remya, Bushima, Mutungo and Gatenga",Kiraro
535,Rwanda,Southern Province,Muhanga,Rongi,Nyamirambo,Kabakungu,Rejected,Technical,1007397,Suspension,12.0,-1.8106111,29.7573333,0.0,Project Assessment - 2018.9.10,Kabakungu,Masizi,Ntarabana,Rwamure,Gisoro,a1if1000002XkiGAAS,006f100000a86Dx,"Kabakungu, Masizi, Ntarabana, Rwamure, Gisoro",Kabakungu
540,Rwanda,Southern Province,Nyaruguru,Ruheru-Nyabimata,Ruyenzi-Kabere,Ruyenzi,Identified,Identified in Needs Assessment,1007582,Suspended,19.0,-2.7557222,29.454916700000002,0.0,Project Assessment - 2018.10.10,Ruyenzi,Ruvuru,Tambananga,Gakaranka,Yanza,a1if1000002mJjfAAE,006f100000a86Gw,"Ruyenzi, Ruvuru, Tambananga, Gakaranka, Yanza",Ruyenzi-Uwigisura
542,Rwanda,Southern Province,Nyaruguru,Ruramba-Tare,Ruramba-Buhoro,Bugizi,Identified,Identified in Needs Assessment,1007599,Suspension,40.0,-2.53305556,29.53638889,0.0,Project Assessment - 2018.10.29,Bugizi,Karambi,Gitovu,Kirwa-Nyabwoma,Muhembe,a1if1000002e6ozAAA,006f100000a86HD,"Bugizi, Karambi, Gitovu, Kirwa-Nyabwoma, Muhembe",
545,Rwanda,Northern Province,Rulindo,Base,Cyohoha-Git,Rubanda,Rejected,Technical,1007615,Suspension,65.0,-1.6443888999999998,29.8994722,0.0,Project Assessment - 2018.12.10,Rubanda,Kabuga-Gitwa,Bukangano,Mushongi,Mugenda,a1if1000002qvOKAAY,006f100000a86HT,"Rubanda, Kabuga-Gitwa, Bukangano, Mushongi, Mugenda",
547,Rwanda,Western Province,Rusizi,Nkungu,Ryamuhirwa,Rugabe,Rejected,Technical,1013910,Suspended,0.0,-2.51669,28.96432,0.0,Project Assessment - 2018.10.16,Rugabe,Nyarushishi,Gisovu,Rususa,Gatarange,a1if1000002n1ItAAI,006f100000d8Ail,"Rugabe, Nyarushishi, Gisovu, Rususa, Gatarange",
554,Rwanda,Western Province,Rusizi,Nyakarenzo,Gat-Kanoga,Kabumbwe,Rejected,Technical,1013911,Suspended,0.0,-2.5331799999999998,28.95045,0.0,Project Assessment - 2018.10.16,Kabumbwe,Kumana,Kanoga,Buharo,Ryamaraza,a1if1000002n1IyAAI,006f100000d8Aiq,"Kabumbwe, Kumana, Kanoga, Buharo, Ryamaraza",
557,Rwanda,Northern Province,Rulindo,Rusiga,Taba,Karenge,Rejected,Technical,1013752,Suspended,0.0,-1.8306799999999999,29.90837,0.0,Project Assessment - 2018.9.28,Karenge,Bitare,Gahondo,Gihinga,Karehe,a1if1000002YvkRAAS,006f100000d7kmJ,"Karenge, Bitare, Gahondo, Gihinga, Karehe",
560,Rwanda,Northern Province,Burera,Gatebe,Musama,Kwa Bizimana,Rejected,Technical,1013327,Suspended,0.0,-1.5554700000000001,29.989409999999996,0.0,Project Assessment - 2018.9.9,Bikumba,Kabuga,Murambo,Rwamazi,Gacyamo,a1if1000002Xg1yAAC,006f100000d7ESZ,"Bikumba, Kabuga, Murambo, Rwamazi, Gacyamo",Bikumba-Muramba
562,Rwanda,Northern Province,Burera,Gatebe,Musenda,Kwa musakiranya,Rejected,Technical,1013318,Suspended,0.0,-1.56761,29.99711,0.0,Project Assessment - 2018.9.9,Bikumba,Rurambi,Nyagafunzo,Muremure,Kabuga,a1if1000002Xf7HAAS,006f100000d7EQE,"Bikumba, Rurambi, Nyagafunzo, Muremure, Kabuga",
564,Rwanda,Northern Province,Burera,Gitovu,Mariba,Rusuzuma,Rejected,Technical,1013320,Suspension,0.0,-1.49763,29.80603,0.0,Project Assessment - 2018.9.9,Rusuzuma,Burabwa,Bitagara,Kiboga,"Runyenyeli, Buhemba and Mariba",a1if1000002XfBsAAK,006f100000d7EQd,"Rusuzuma, Burabwa, Bitagara, Kiboga, Runyenyeli, Buhemba and Mariba",
565,Rwanda,Southern Province,Huye,Ruhashya,Rugogwe-Ruhashya,Akanyana,Rejected,Technical,1013337,Suspension,0.0,-2.49432,29.735090000000003,0.0,Project Assessment - 2018.9.9,Akanyana,Murambi,Gasharu,Rwamabare,Mbagabaga,a1if1000002XgjlAAC,006f100000d7ETc,"Akanyana, Murambi, Gasharu, Rwamabare, Mbagabaga",
567,Rwanda,Northern Province,Burera,Rwerere,Kigali,Mushubi,Rejected,Technical,1013322,Suspended,0.0,-1.5298200000000002,29.85156,0.0,Project Assessment - 2018.9.9,Mushubi,Gacyamo,Butare,Ryaruhirima,"Murambi, Gatovu, Mucaca, Ntazi, Kirambo",a1if1000002XfNFAA0,006f100000d7ER7,"Mushubi, Gacyamo, Butare, Ryaruhirima, Murambi, Gatovu, Mucaca, Ntazi, Kirambo",Mushubi
568,Rwanda,Northern Province,Burera,Gatebe-Bungwe,Gabiro-Zih,Zihare,Rejected,Technical,1013316,Suspension,0.0,-1.50342,29.95362,0.0,Project Assessment - 2018.9.9,Zihare,Buzaniro,Kajerijeri,Tumba,"Mutungo, Gitaba, Nyakabingo,Kagano",a1if1000002XeyoAAC,006f100000d7EPz,"Zihare, Buzaniro, Kajerijeri, Tumba, Mutungo, Gitaba, Nyakabingo,Kagano",
569,Rwanda,Northern Province,Burera,Rwerere,Rugali,Burindwa,Rejected,Technical,1013324,Suspension,0.0,-1.5088700000000002,29.84577,0.0,Project Assessment - 2018.9.9,Burindwa,Gacundura,Moma,Butare,Kirambo,a1if1000002XfiIAAS,006f100000d7ERv,"Burindwa, Gacundura, Moma, Butare, Kirambo",
571,Rwanda,Northern Province,Burera,Rwerere,Rugali,Tangata,Rejected,Technical,1013323,Suspension,0.0,-1.51042,29.8463,0.0,Project Assessment - 2018.9.9,Tangata,Butare,Gacyamo,Kirambo,Mushubi,a1if1000002XffiAAC,006f100000d7ERl,"Tangata, Butare, Gacyamo, Kirambo, Mushubi",
572,Rwanda,Northern Province,Burera,Gatebe,Musenda,Kwa kabandwa,Rejected,Technical,1013326,Suspended,0.0,-1.5546200000000001,29.987029999999997,0.0,Project Assessment - 2018.9.9,Kabuga,Bikumba,Murambo,Gacyamo,Rwamazi,a1if1000002Xfs3AAC,006f100000d7ESP,"Kabuga, Bikumba, Murambo, Gacyamo, Rwamazi",
577,Rwanda,Southern Province,Muhanga,Nyarusange,Musongati-Mbiriri,Kiciro,Under Construction,,1013351,Suspension,33.0,-2.05545934,29.64411986,0.0,Project Assessment - 2018.9.10,Kiciro,Gasharu,Karucura,Kamanga,Murambi,a1if1000002XkgyAAC,006f100000d7EZR,"Kiciro, Gasharu, Karucura, Kamanga, Murambi",Kiciro-Gasharu
578,Rwanda,Southern Province,Muhanga,Mushishiro,Matyazo-Rukaragata,Rusuzumiro,Identified,Requested,1013349,Suspension,0.0,-1.98365945,29.65245312,0.0,Project Assessment - 2018.9.10,Kabeza,Gitwa,Cyarubambire,Rugerero,Kamurekezi,a1if1000002XkflAAC,006f100000d7EZH,"Kabeza, Gitwa, Cyarubambire, Rugerero, Kamurekezi",Kabeza-Rugerero
580,Rwanda,Southern Province,Muhanga,Muhanga,Remera,Gisiza,Rejected,Technical,1012949,Suspension,0.0,-2.00518138,29.7139582,0.0,Project Assessment - 2018.8.25,Gisiza,Naganiro,Muhanga,Karambo,Kasemacyende,a1if1000002VmjeAAC,006f100000d6wBe,"Gisiza, Naganiro, Muhanga, Karambo, Kasemacyende",Gisiza
583,Rwanda,Southern Province,Muhanga,Muhanga,Nyamirama,Rwabagenzi,Identified,,1012952,Suspension,58.0,-2.04202456,29.7725994,0.0,Project Assessment - 2018.8.25,Rwabagenzi,Nyiramarangara,Kantonganiye,Kiyoro,Muhanga,a1if1000002VmjtAAC,006f100000d6wBt,"Rwabagenzi, Nyiramarangara, Kantonganiye, Kiyoro, Muhanga",
587,Rwanda,Southern Province,Muhanga,Nyabinoni-Ngororero,Nyarusozi-Kaseke,Gitega,Rejected,Technical,1012955,Suspension,0.0,-1.7722900000000001,29.66985,0.0,Project Assessment - 2018.8.25,Gitwa,Kanyinya,Kanombe,Mugeni,Nyarusange,a1if1000002Vmk8AAC,006f100000d6wC8,"Gitwa, Kanyinya, Kanombe, Mugeni, Nyarusange",Gitwa
589,Rwanda,Southern Province,Muhanga,Kabacuzi-Muhanga,Ngarama-Remera,Karuvungwa,Identified,,1012948,Suspended,0.0,-1.9849919999999999,29.733140000000002,0.0,Project Assessment - 2018.8.25,Mpanga,Munzereri,Gakondokondo,Naganiro,Kinyoni,a1if1000002VmjZAAS,006f100000d6wBZ,"Mpanga, Munzereri, Gakondokondo, Naganiro, Kinyoni",Mpanga-Munzereri
591,Rwanda,Northern Province,Rulindo,Ntarabana,Mahwaza-Kivugiza,Karengo,Identified,,1008002,Suspension,48.0,-1.78583333,30.0825,0.0,Project Assessment - 2018.12.10,Gitwa-Kamahuriro,Rurambi-Kibeho,Rusekabuye,Gasenga,Rebero-Musega,a1if1000002qvOPAAY,006f100000aATjC,"Gitwa-Kamahuriro, Rurambi-Kibeho, Rusekabuye, Gasenga, Rebero-Musega",
595,Rwanda,Western Province,Nyamasheke,Kanjongo,Raro-Gako,Gisiza,Identified,Requested,1013898,Suspended,0.0,-2.353335,29.147336,0.0,Project Assessment - 2018.10.14,Gasumo,Baraguma,Gasihe,Rwisovu,Remera,a1if1000002mx0dAAA,006f100000d88Kh,"Gasumo, Baraguma, Gasihe, Rwisovu, Remera",
599,Rwanda,Western Province,Nyamasheke,Rangiro,Gakenke-Murambi,Kamatsira,Prospecting,,1013899,Suspended,45.0,-2.407594,29.163424,0.0,Project Assessment - 2018.10.14,Kamatsira,Ruhana,Rwasa,Rugeyo,Nyakabingo,a1if1000002mx0nAAA,006f100000d88Km,"Kamatsira, Ruhana, Rwasa, Rugeyo, Nyakabingo",
604,Rwanda,Western Province,Nyabihu,Rurembo-Rugera,Gahondo-Tyazo,Murengere,Rejected,Technical,1013386,Suspended,0.0,-1.62778,29.59093,0.0,Project Assessment - 2018.9.11,Murengere,Murungu,Kazuba,Bihira,Mucaca,a1if1000002Xn7AAAS,006f100000d7Gsm,"Murengere, Murungu, Kazuba, Bihira, Mucaca",
606,Rwanda,Western Province,Nyabihu,Rugera-Kintobo,Marangara-Nyagisozi,Bwumba,Rejected,Technical,1013384,Suspended,0.0,-1.61143,29.578290000000003,0.0,Project Assessment - 2018.9.11,Bwumba,Nyagisozi,Murungu,Tetero,Rugendabari,a1if1000002Xn6MAAS,006f100000d7Gsc,"Bwumba, Nyagisozi, Murungu, Tetero, Rugendabari",
607,Rwanda,Western Province,Nyabihu,Jenda,Kba,Nyacyonga,Rejected,Technical,1013389,Suspension,0.0,-1.57778,29.47565,0.0,Project Assessment - 2018.9.11,Nyacyonga,Bizu,Gikombe,Kinyengagi,Rubare_Kareba,a1if1000002Xn88AAC,006f100000d7Gt1,"Nyacyonga, Bizu, Gikombe, Kinyengagi, Rubare_Kareba",
610,Rwanda,Western Province,Nyabihu,Jenda,Kabatezi,RunyanjaII,Rejected,Technical,1013372,Suspended,0.0,-1.61142,29.472890000000003,0.0,Project Assessment - 2018.9.11,Runyanja,Nyamutukura,Jenda,Gitambuko-Musumba,Gisozi,a1if1000002XmtwAAC,006f100000d7Gre,"Runyanja, Nyamutukura, Jenda, Gitambuko-Musumba, Gisozi",
611,Rwanda,Western Province,Nyabihu,Karago,Gihirwa,Biseke,Identified,Requested,1013374,Suspended,0.0,-1.66137,29.500690000000002,0.0,Project Assessment - 2018.9.11,Biseke,Nyagisozi,Kanombe,Gifumba,Rugarambiro,a1if1000002XmwHAAS,006f100000d7Gro,"Biseke, Nyagisozi, Kanombe, Gifumba, Rugarambiro",
615,Rwanda,Western Province,Rusizi,Nkaka,Rugabano,Buzi,Rejected,Technical,1013971,Suspension,0.0,-2.42021,28.957720000000002,0.0,Project Assessment - 2018.10.21,Kamahoro,Gakomeye,Kanyobya,Karama,"Kirambi, kanoga, kibumba",a1if1000002dsbGAAQ,006f100000d1TmA,"Kamahoro, Gakomeye, Kanyobya, Karama, Kirambi, kanoga, kibumba",
617,Rwanda,Western Province,Nyabihu,Karago,Kngera,Ruyebe,Rejected,Technical,1013366,Suspended,0.0,-1.6503599999999998,29.52165,0.0,Project Assessment - 2018.9.11,Nyaburaro,Ruyebe,Karambi,Kigwa,Gatwe,a1if1000002XmrqAAC,006f100000d7GrA,"Nyaburaro, Ruyebe, Karambi, Kigwa, Gatwe",
619,Rwanda,Western Province,Nyabihu,Karago,Kngere-Kadahenda,Ruyebe,Identified,Requested,1013392,Suspended,0.0,-1.6554900000000001,29.518620000000002,0.0,Project Assessment - 2018.9.11,Ruyebe,Mwiyanike,Rwimigega,Remera,Hanika,a1if1000002Xn9GAAS,006f100000d7GtG,"Ruyebe, Mwiyanike, Rwimigega, Remera, Hanika",
620,Rwanda,Western Province,Nyabihu,Jenda,Kba,Rubare,Rejected,Technical,1013368,Suspended,0.0,-1.59466,29.471840000000004,0.0,Project Assessment - 2018.9.11,Rubare,Munanira,Musumba,Kamatenge,Kareba,a1if1000002XmseAAC,006f100000d7GrK,"Rubare, Munanira, Musumba, Kamatenge, Kareba",
622,Rwanda,Western Province,Nyabihu,Jomba-Matyazo,Gisiza-Rut,Gahama,Identified,Requested,1013364,Suspended,0.0,-1.70127,29.55681,0.0,Project Assessment - 2018.9.11,Gahama,Ruhurura,Gitega-Rwamabuye,Gasayo-Gataka,Rwamabuye-Nyakiriba,a1if1000002Xmr7AAC,006f100000d7Gr0,"Gahama, Ruhurura, Gitega-Rwamabuye, Gasayo-Gataka, Rwamabuye-Nyakiriba",
623,Rwanda,Western Province,Nyabihu,Jenda,Nyirakigugu,Rushungura,Rejected,Technical,1013370,Suspension,0.0,-1.6286200000000002,29.47369,0.0,Project Assessment - 2018.9.11,Rushungura,Kibaya,Kibuye,Kaburiza,Buremera,a1if1000002XmtIAAS,006f100000d7GrU,"Rushungura, Kibaya, Kibuye, Kaburiza, Buremera",
627,Rwanda,Western Province,Nyabihu,Jenda-Karago,Nyirakigugu-Cyamabuye,Kugasumo,Identified,Requested,1013377,Suspension,42.0,-1.62689,29.488840000000003,0.0,Project Assessment - 2018.9.11,Muderi,Cyamabuye,Nteranya,Nanga,Muremure,a1if1000002Xn2KAAS,006f100000d7Gs3,"Muderi, Cyamabuye, Nteranya, Nanga, Muremure",
629,Rwanda,Western Province,Nyabihu,Rugera,Marangara-Rurembo,Rwangege,Rejected,Technical,1013363,Suspended,0.0,-1.6028799999999999,29.593890000000002,0.0,Project Assessment - 2018.9.11,Rwangenge,Karambi,Bihe,Bwumba,Gasayo-Kagano,a1if1000002XmqYAAS,006f100000d7Gqv,"Rwangenge, Karambi, Bihe, Bwumba, Gasayo-Kagano",
631,Rwanda,Western Province,Nyabihu,Karago-Jenda,Busoro-Bukanyana,Gatagara,Rejected,Technical,1013379,Suspension,0.0,-1.62934,29.4568,0.0,Project Assessment - 2018.9.11,Bibanza,Gatagara,Kagohe,Karuhirwa,Kageri,a1if1000002Xn3XAAS,006f100000d7GsD,"Bibanza, Gatagara, Kagohe, Karuhirwa, Kageri",
632,Rwanda,Western Province,Nyabihu,Rugera,Marangara,Gasayo,Rejected,Technical,1013385,Suspended,0.0,-1.6145399999999999,29.5842,0.0,Project Assessment - 2018.9.11,Bwumba,Gasayo,Rugendabari-Dehero-Tetero,Kabahendanyi,Mucaca-Nyagasozi,a1if1000002Xn6lAAC,006f100000d7Gsh,"Bwumba, Gasayo, Rugendabari-Dehero-Tetero, Kabahendanyi, Mucaca-Nyagasozi",
637,Rwanda,Western Province,Nyabihu,Rugera,Marangara-Tyazo,Nyagasozi,Rejected,Technical,1013380,Suspended,0.0,-1.62865,29.61529,0.0,Project Assessment - 2018.9.11,Kingona,Nyagasozi,Nyarusange,Mubuga,Marangara,a1if1000002Xn4BAAS,006f100000d7GsI,"Kingona, Nyagasozi, Nyarusange, Mubuga, Marangara",
638,Rwanda,Western Province,Rusizi,Nkanka,Kyaga,Kabutimbiri,Rejected,Technical,1013966,Suspension,0.0,-2.40129,28.95172,0.0,Project Assessment - 2018.10.21,Rugaragara,Kabutimbiri,Kinyaga,Sumoyamana,Rebero &miramba,a1if1000002dsarAAA,006f100000d1Tkx,"Rugaragara, Kabutimbiri, Kinyaga, Sumoyamana, Rebero &miramba",
640,Rwanda,Western Province,Rusizi,Gihundwe,Burunga,Burunga,Rejected,Technical,1013974,Suspension,0.0,-2.4706099999999998,28.91442,0.0,Project Assessment - 2018.10.21,Burunga,Karorabose,Karushaririza,Kamabuye,Rushakamba,a1if1000002dsbVAAQ,006f100000d1TnI,"Burunga, Karorabose, Karushaririza, Kamabuye, Rushakamba",
641,Rwanda,Western Province,Rusizi,Gihundwe,Burunga,Gitinda,Rejected,Technical,1013975,Suspended,0.0,-2.46143,28.91068,0.0,Project Assessment - 2018.10.21,Karorabose,Karitasi,Kamabuye,Burunga,Kanyoga,a1if1000002dsbaAAA,006f100000d1Tnm,"Karorabose, Karitasi, Kamabuye, Burunga, Kanyoga",
646,Rwanda,Southern Province,Nyamagabe,Musebeya,Runege,Rwangambibi(Runege),Rejected,Technical,1012979,Suspended,0.0,-2.4220479999999998,29.465853000000003,0.0,Project Assessment - 2018.8.25,Gakereko,Ndogondwe,Bigugu,Ruganza,Rukaranka,a1if1000002Vn19AAC,006f100000d6wI0,"Gakereko, Ndogondwe, Bigugu, Ruganza, Rukaranka",
647,Rwanda,Southern Province,Nyamagabe,Nkomane,Mutengeli,Bishenge(Masuma),Identified,Requested,1012983,Suspended,0.0,-2.345908,29.409702000000003,0.0,Project Assessment - 2018.8.25,Gishenge,Gakomeye,Kibuga,Ruhinga,"Tubuye, mutengeli",a1if1000002Vn1TAAS,006f100000d6wIK,"Gishenge, Gakomeye, Kibuga, Ruhinga, Tubuye, mutengeli",
654,Rwanda,Southern Province,Nyamagabe,Musebeya-Buruhukiro,Runege,Nyirarukeri (bitaba),Rejected,Technical,1012985,Suspended,0.0,-2.433943,29.46317,0.0,Project Assessment - 2018.8.25,Bitaba,Gacundura,Rukaranka,Ndogondwe,"Bishyiga, rukeri",a1if1000002Vn1nAAC,006f100000d6wJ8,"Bitaba, Gacundura, Rukaranka, Ndogondwe, Bishyiga, rukeri",
657,Rwanda,Southern Province,Nyamagabe,Musebeya,Runege,Nyiraruganza( Gakereko),Rejected,Technical,1012978,Suspended,0.0,-2.427205,29.475815,0.0,Project Assessment - 2018.8.25,Ruganza,Rukaranka,Gakereko,Bigugu,Ndogondwe,a1if1000002Vn14AAC,006f100000d6wHv,"Ruganza, Rukaranka, Gakereko, Bigugu, Ndogondwe",
658,Rwanda,Southern Province,Nyamagabe,Nkomane,Musaraba,Rusoyo,Identified,Requested,1012984,Suspended,0.0,-2.276669,29.411296999999998,0.0,Project Assessment - 2018.8.25,Musaraba,Rangi,Gihundwe,Rusoyo,"Kavumu,rugogwe",a1if1000002Vn1YAAS,006f100000d6wIU,"Musaraba, Rangi, Gihundwe, Rusoyo, Kavumu,rugogwe",
661,Rwanda,Western Province,Rusizi,Gitambi,Cygwa,Nyagasozi,Rejected,Technical,1013979,Suspension,0.0,-2.57813,28.976570000000002,0.0,Project Assessment - 2018.10.21,Mugenge,Kabugarama,Mpinga,Kabucuku,Rwihene,a1if1000002dscEAAQ,006f100000d1TsS,"Mugenge, Kabugarama, Mpinga, Kabucuku, Rwihene",
663,Rwanda,Western Province,Rusizi,Rwimbogo-Gashonga,Rubugu-Rusayo,Ntenyi,Rejected,Technical,1013985,Suspended,0.0,-2.60778,28.95301,0.0,Project Assessment - 2018.10.21,Ntenyi,Gatare,Bitaba,Kiremereye,Kamuhana,a1if1000002dsciAAA,006f100000d1Tsw,"Ntenyi, Gatare, Bitaba, Kiremereye, Kamuhana",
668,Rwanda,Southern Province,Nyamagabe,Buruhukiro,Kizimyamuriro,Kinaba-Subukiniro,Rejected,Technical,1012993,Suspension,0.0,-2.4868900000000003,29.416145,0.0,Project Assessment - 2018.8.26,Kinaba,Subukiniro,Uwinzira,Kagano,Gishwati,a1if1000002Vn3lAAC,006f100000d6wNe,"Kinaba, Subukiniro, Uwinzira, Kagano, Gishwati",
669,Rwanda,Southern Province,Nyamagabe,Gatare,Bakopfu,Karambo-Twiya 1,Rejected,Technical,1012994,Suspended,0.0,-2.37318833,29.42095333,0.0,Project Assessment - 2018.8.26,Karambo,Muhingo,Twiya,Rwangambibi,Runaba,a1if1000002Vn3qAAC,006f100000d6wNj,"Karambo, Muhingo, Twiya, Rwangambibi, Runaba",
670,Rwanda,Southern Province,Nyamagabe,Gatare,Gat,Murembo-Kiyovu,Rejected,Technical,1013001,Suspension,0.0,-2.373135,29.40052667,0.0,Project Assessment - 2018.8.26,Murembo,Kiyovu,Muhingo,Twiya,Karambo,a1if1000002Vn4PAAS,006f100000d6wOI,"Murembo, Kiyovu, Muhingo, Twiya, Karambo",
671,Rwanda,Southern Province,Nyamagabe,Gatare,Bakopfu-Ruga,Karambo-Gituntu,Rejected,Technical,1012996,Suspension,0.0,-2.368775,29.42337667,0.0,Project Assessment - 2018.8.26,Karambo,Twiya,Gituntu,Runaba,Rwangambibi,a1if1000002Vn40AAC,006f100000d6wNt,"Karambo, Twiya, Gituntu, Runaba, Rwangambibi",
675,Rwanda,Western Province,Rusizi,Gitambi,Cygwa,Karongi,Rejected,Technical,1013980,Suspended,0.0,-2.5754900000000003,28.97839,0.0,Project Assessment - 2018.10.21,Mugenge,Kabugarama,Mpigi,Kabucuku,Rwihene,a1if1000002dscJAAQ,006f100000d1TsX,"Mugenge, Kabugarama, Mpigi, Kabucuku, Rwihene",
676,Rwanda,Western Province,Rusizi,Gihundwe,Burunga,Karitasi 2,Rejected,Technical,1013993,Suspended,0.0,-2.4560299999999997,28.91183,0.0,Project Assessment - 2018.10.21,Karitasi,Karorabose,Kanombe,Karushaririza,Gitinda and Munyana,a1if1000002dsdMAAQ,006f100000d1TuE,"Karitasi, Karorabose, Kanombe, Karushaririza, Gitinda and Munyana",
678,Rwanda,Southern Province,Nyamagabe,Tare,Nkumbure-Gatovu,Gasenge-Mubezi,Rejected,Technical,1012998,Suspension,0.0,-2.52520667,29.50410667,0.0,Project Assessment - 2018.8.26,Gasenge,Mubezi,Ryarubondo,Kigusa,Mujuga,a1if1000002Vn4AAAS,006f100000d6wO3,"Gasenge, Mubezi, Ryarubondo, Kigusa, Mujuga",
680,Rwanda,Southern Province,Nyamagabe,Tare,Nkumbure-Gatovu,Uwumugeti-Kigusa,Confirmed,,1012997,Suspended,55.0,-2.540715,29.503838000000002,0.0,Project Assessment - 2018.8.26,Uwumugeti,Biraro,Gasenge,Kigusa,Rukereko,a1if1000002Vn45AAC,006f100000d6wNy,"Uwumugeti, Biraro, Gasenge, Kigusa, Rukereko",
681,Rwanda,Southern Province,Nyamagabe,Gatare,Shyeru-Mutengeri,Baziro-Kivumu,Rejected,Technical,1013000,Suspension,0.0,-2.35571333,29.4072,0.0,Project Assessment - 2018.8.26,Baziro,Mutengeri,Kivumu,Ruhanga,Kagusa,a1if1000002Vn4KAAS,006f100000d6wOD,"Baziro, Mutengeri, Kivumu, Ruhanga, Kagusa",
682,Rwanda,Southern Province,Nyamagabe,Gatare,Shyeru-Twiya,Baziro-Gishenge,Rejected,Technical,1012999,Suspended,0.0,-2.34743667,29.4097,0.0,Project Assessment - 2018.8.26,Baziro,Gishenge,Mutengeri,Kivumu,Ruhanga,a1if1000002Vn4FAAS,006f100000d6wO8,"Baziro, Gishenge, Mutengeri, Kivumu, Ruhanga",
683,Rwanda,Southern Province,Nyamagabe,Gatare,Bakopfu,Karambo-Twiya 2,Rejected,Technical,1012995,Suspended,0.0,-2.37023167,29.42249833,0.0,Project Assessment - 2018.8.26,Karambo,Muhingo,Rwangambibi,Runaba,Twiya,a1if1000002Vn3vAAC,006f100000d6wNo,"Karambo, Muhingo, Rwangambibi, Runaba, Twiya",
684,Rwanda,Southern Province,Nyamagabe,Buruhukiro,Kizimyamuriro,Minaga-Mujerenge,Rejected,Technical,1012992,Suspended,0.0,-2.4595700000000003,29.42245333,0.0,Project Assessment - 2018.8.26,Mujerenge,Minaga,Kinaba,Uwinzira,Gishwati,a1if1000002Vn3gAAC,006f100000d6wNZ,"Mujerenge, Minaga, Kinaba, Uwinzira, Gishwati",
686,Rwanda,Western Province,Rusizi,Gitambi,Mashesha-Gahungeri,Karama,Rejected,Technical,1013984,Suspended,0.0,-2.60072,28.997020000000003,0.0,Project Assessment - 2018.10.21,Karama,Kankuba,Idaga,Kamagaju,Kazinda,a1if1000002dscdAAA,006f100000d1Tsr,"Karama, Kankuba, Idaga, Kamagaju, Kazinda",
688,Rwanda,Western Province,Rusizi,Nzahaha,Murya-Butambamo,Nyagasayo,Rejected,Technical,1013991,Suspended,0.0,-2.66859,28.94991,0.0,Project Assessment - 2018.10.21,Gashagwa,Nyagahanga,Tare,Buganza,Ryagashyitse,a1if1000002dsdCAAQ,006f100000d1Ttk,"Gashagwa, Nyagahanga, Tare, Buganza, Ryagashyitse",
689,Rwanda,Western Province,Rusizi,Gihundwe,Burunga,Karushaririza,Rejected,Technical,1013995,Other,0.0,-2.46236,28.92434,0.0,Project Assessment - 2018.10.21,Karushaririza,Bisanganiro,Karangiro,Rwahi,"Kamabuye, karorabose, what's she, munyove",a1if1000002dsdWAAQ,006f100000d1TuT,"Karushaririza, Bisanganiro, Karangiro, Rwahi, Kamabuye, karorabose, what's she, munyove",
690,Rwanda,Western Province,Rusizi,Gitambi,Cygwa,Gafumba,Rejected,Technical,1013981,Suspended,0.0,-2.58071,28.97723,0.0,Project Assessment - 2018.10.21,Mugenge,Kabugarama,Mpinga,Kabucuku,Rwihene,a1if1000002dscOAAQ,006f100000d1Tsc,"Mugenge, Kabugarama, Mpinga, Kabucuku, Rwihene",
691,Rwanda,Western Province,Rusizi,Gihundwe,Burunga,Karitasi 1,Rejected,Technical,1013994,Suspended,0.0,-2.45187,28.911579999999997,0.0,Project Assessment - 2018.10.21,Karitasi,Munyana,Karorabose,Karushaririza,Karangiro,a1if1000002dsdRAAQ,006f100000d1TuO,"Karitasi, Munyana, Karorabose, Karushaririza, Karangiro",
692,Rwanda,Western Province,Rusizi,Rwimbogo-Gashonga,Rubugu-Rurembo,Nyange,Rejected,Technical,1013986,Suspension,0.0,-2.61167,28.96442,0.0,Project Assessment - 2018.10.21,Nyange,Gatare,Ntenyi,Kagomero,Rurama - Ruhinga,a1if1000002dscnAAA,006f100000d1Tt1,"Nyange, Gatare, Ntenyi, Kagomero, Rurama - Ruhinga",
693,Rwanda,Western Province,Rusizi,Gitambi,Cygwa,Gitega,Rejected,Technical,1013982,Suspended,0.0,-2.57392,28.98504,0.0,Project Assessment - 2018.10.21,Rwihene,Kabacuku,Mugenge,Kabugarama,Mpinga,a1if1000002dscTAAQ,006f100000d1Tsh,"Rwihene, Kabacuku, Mugenge, Kabugarama, Mpinga",
694,Rwanda,Western Province,Rusizi,Nzahaha,Murya-Butambamo,Cyamabuye,Rejected,Technical,1013989,Suspension,0.0,-2.6627,28.95512,0.0,Project Assessment - 2018.10.21,Ngoma,Gashagwa,Buganza,Gaculiro,Kamina,a1if1000002dsd2AAA,006f100000d1Tta,"Ngoma, Gashagwa, Buganza, Gaculiro, Kamina",
695,Rwanda,Western Province,Rusizi,Gitambi,Mashesha-Mashyuza,Nyakivomero,Rejected,Technical,1013983,Suspended,0.0,-2.5847,29.014090000000003,0.0,Project Assessment - 2018.10.21,Nyakivomero,Karama - Idaga,Busasamana - Kankuba,Rukamba - Nyamaronko,Ruganzu - Kibirizi - Murambi,a1if1000002dscYAAQ,006f100000d1Tsm,"Nyakivomero, Karama - Idaga, Busasamana - Kankuba, Rukamba - Nyamaronko, Ruganzu - Kibirizi - Murambi",
697,Rwanda,Southern Province,Nyanza,Cyabakamyi-Mukingo,Nyabyenga-Cyerezo,Kamabuye,Identified,Requested,1013011,Suspended,50.0,-2.30024,29.6845,0.0,Project Assessment - 2018.8.26,Kamabuye,Taba,Kimana - Cyikirehe,Cyumba,Nyankokoma,a1if1000002VnIgAAK,006f100000d6wRf,"Kamabuye, Taba, Kimana - Cyikirehe, Cyumba, Nyankokoma",
701,Rwanda,Western Province,Rusizi,Nkanka,Rugabano,Rebero,Rejected,Technical,1013996,Suspension,0.0,-2.40718,28.950029999999998,0.0,Project Assessment - 2018.10.21,Rugaragara,Rebero,Kabutimbiri,Sumoyimana,Kinyaga,a1if1000002dsdbAAA,006f100000d1Tvc,"Rugaragara, Rebero, Kabutimbiri, Sumoyimana, Kinyaga",
703,Rwanda,Southern Province,Nyanza,Muyira-Kibirizi,Miga-Rwotsa,Bigugu,Rejected,Technical,1013013,Suspension,0.0,-2.3803400000000003,29.862270000000002,0.0,Project Assessment - 2018.8.26,Kinyana,Kibirizi,Kankima - Gituza,Nyarurama,Saruhembe - Kabuga,a1if1000002VnIqAAK,006f100000d6wRp,"Kinyana, Kibirizi, Kankima - Gituza, Nyarurama, Saruhembe - Kabuga",
708,Rwanda,Southern Province,Nyanza,Mukingo,Mpanga-Nkomero,Mataba,Rejected,Technical,1013006,Suspended,0.0,-2.28569,29.716340000000002,0.0,Project Assessment - 2018.8.26,Mataba,Kigarama,Nyarutovu - Kerezo,Kinyinya - Nyankunamirwa,Gisuma - Nzuki - Kiganda,a1if1000002VnIHAA0,006f100000d6wQw,"Mataba, Kigarama, Nyarutovu - Kerezo, Kinyinya - Nyankunamirwa, Gisuma - Nzuki - Kiganda",
709,Rwanda,Southern Province,Nyanza,Muyira-Kibirizi,Miga-Rwotsa,Nyakagende,Rejected,Technical,1013014,Suspension,0.0,-2.37474,29.867759999999997,0.0,Project Assessment - 2018.8.26,Kinyana,Kibirizi,Kankima - Gituza,Nyarurama,Saruhembe - Kabuga,a1if1000002VnIvAAK,006f100000d6wRu,"Kinyana, Kibirizi, Kankima - Gituza, Nyarurama, Saruhembe - Kabuga",
711,Rwanda,Southern Province,Nyanza,Muyira,Nyamure,Kagina,Rejected,Technical,1013010,Suspension,0.0,-2.34749,29.798640000000002,0.0,Project Assessment - 2018.8.26,Gatare,Nyarugunga,Cyegera,Bugarama,Rugali,a1if1000002VnIbAAK,006f100000d6wRa,"Gatare, Nyarugunga, Cyegera, Bugarama, Rugali",
723,Rwanda,Western Province,Nyabihu,Mulinga-Jomba,Nkomane,Kigusa,Identified,Requested,1013761,Suspended,0.0,-1.7246,29.54478,0.0,Project Assessment - 2018.9.28,Kigusa,Rwandarugari,Kinyansenge,Rurembo _Ryanyirandaba,Kivurugo-Musaraba,a1if1000002YvljAAC,006f100000d7ksl,"Kigusa, Rwandarugari, Kinyansenge, Rurembo _Ryanyirandaba, Kivurugo-Musaraba",
724,Rwanda,Northern Province,Rulindo,Kisaro-Miyove,Mubuga-Gakenke,Kibuye,Rejected,Technical,1013745,Suspension,0.0,-1.64805,30.01587,0.0,Project Assessment - 2018.9.28,Kibuye,Murambi,Nyakarekare-cyasure,Kirwa,Rugandu,a1if1000002YvihAAC,006f100000d7kfS,"Kibuye, Murambi, Nyakarekare-cyasure, Kirwa, Rugandu",
729,Rwanda,Northern Province,Rulindo,Rusiga,Taba,Bitare,Rejected,Technical,1013748,Suspended,0.0,-1.8298900000000002,29.929809999999996,0.0,Project Assessment - 2018.9.28,Bitare,Gahondo,Nyakarama,Ruhanga,Kagunda-Mukumba,a1if1000002Yvj1AAC,006f100000d7kk8,"Bitare, Gahondo, Nyakarama, Ruhanga, Kagunda-Mukumba",
731,Rwanda,Southern Province,Gisagara,Gishubi,Nyeranzi,Nyabyunyu,Rejected,Technical,1013912,Suspension,0.0,-2.57105,29.889740000000003,0.0,Project Assessment - 2018.10.16,Nyabyunyu - Muyinza,Cyamanyeri - Rwegura,Gikuyo - Rwanza,Kagoma - Nyamure,Busave - Nyundo,a1if1000002n1JDAAY,006f100000d8Aiv,"Nyabyunyu - Muyinza, Cyamanyeri - Rwegura, Gikuyo - Rwanza, Kagoma - Nyamure, Busave - Nyundo",
734,Rwanda,Southern Province,Gisagara,Ndora,Bweya-Gisagara,Musizi,Rejected,Technical,1013914,Suspension,0.0,-2.60413,29.80698,0.0,Project Assessment - 2018.10.16,Akiminazi,Kantabana - Sabudari,Mirayi - Kamahembe,Rugara,Nyabitare,a1if1000002n1JNAAY,006f100000d8Aj5,"Akiminazi, Kantabana - Sabudari, Mirayi - Kamahembe, Rugara, Nyabitare",
736,Rwanda,Southern Province,Gisagara,Gishubi,Nyakibungo,Rusasa,Rejected,Technical,1013915,Suspension,0.0,-2.5939200000000002,29.8922,0.0,Project Assessment - 2018.10.16,Rusasa - Gicaca,Kibingi - Rebero,Nkunamo - Banga - Rugarama,Kigozi - Rweza,Kivugiza - Tamba - Nyundo,a1if1000002n1JSAAY,006f100000d8AjF,"Rusasa - Gicaca, Kibingi - Rebero, Nkunamo - Banga - Rugarama, Kigozi - Rweza, Kivugiza - Tamba - Nyundo",
737,Rwanda,Western Province,Rusizi,Nyakarenzo,Kanoga-Gat,Kanyovu,Rejected,Technical,1013916,Suspended,0.0,-2.55346,28.952240000000003,0.0,Project Assessment - 2018.10.16,Kanyovu,Kanoga,Kamanura,Kumana,Kabumbwe,a1if1000002n1JXAAY,006f100000d8AjK,"Kanyovu, Kanoga, Kamanura, Kumana, Kabumbwe",
743,Rwanda,Southern Province,Gisagara,Muganza,Muganza-Rwamiko,Gitinsi,Rejected,Technical,1013923,Suspension,0.0,-2.62646,29.88709,0.0,Project Assessment - 2018.10.16,Gitinsi,Gatongati - Cyanamo,Rwamugoyi - Rwinkuba,Akimirama,Kidaturwa - Ubuseruka,a1if1000002n1NDAAY,006f100000d8AoP,"Gitinsi, Gatongati - Cyanamo, Rwamugoyi - Rwinkuba, Akimirama, Kidaturwa - Ubuseruka",
747,Rwanda,Southern Province,Gisagara,Ndora,Bweya-Cyamukuza,Rusasa,Rejected,Technical,1013913,Suspended,0.0,-2.59858,29.817429999999998,0.0,Project Assessment - 2018.10.16,Akiminazi,Kantabana - Sabudari,Mirayi - Kamahembe,Nyarubari,Urusenyi,a1if1000002n1JIAAY,006f100000d8Aj0,"Akiminazi, Kantabana - Sabudari, Mirayi - Kamahembe, Nyarubari, Urusenyi",
753,Rwanda,Southern Province,Muhanga,Nyabinoni,Nyarusozi-Mbuga,Ruhunde,Identified,,1012956,Suspended,46.0,-1.77785489,29.67587526,0.0,Project Assessment - 2018.8.25,Nyarusange,Gitwa,Gitaba,Karengeri,Murama,a1if1000002VmkDAAS,006f100000d6wCD,"Nyarusange, Gitwa, Gitaba, Karengeri, Murama",Gitwa-Nyarusange
757,Rwanda,Southern Province,Gisagara,Gishubi,Gabiro,Busave,Rejected,Technical,1013921,Suspension,0.0,-2.57408,29.87933,0.0,Project Assessment - 2018.10.16,Busave - Nyundo,Kigozi - Zamwe,Nyamure - Kurutare,Kagoma - Muyinza,Rwegura - Cyamanyeri - Nyabyunyu,a1if1000002n1LYAAY,006f100000d8AoF,"Busave - Nyundo, Kigozi - Zamwe, Nyamure - Kurutare, Kagoma - Muyinza, Rwegura - Cyamanyeri - Nyabyunyu",
777,Rwanda,Western Province,Nyamasheke,Rangiro,Ba,Gahira 1,Rejected,Technical,1013902,Suspension,0.0,-2.442198,29.203302,0.0,Project Assessment - 2018.10.14,Gahira,Uwakagano,Bururi,Ntamba,"Rutiritiri, kizingwa",a1if1000002mx59AAA,006f100000d88PD,"Gahira, Uwakagano, Bururi, Ntamba, Rutiritiri, kizingwa",
784,Rwanda,Northern Province,Rulindo,Burega,Kngeri,Mitabi,Identified,Requested,1007647,Suspended,50.0,-1.74817,30.03081,0.0,Project Assessment - 2018.8.12,Mitabi,Gihinga,Kizenga,Muhondo,Kavumu,a1if10000025o2HAAQ,006f100000a86Hz,"Mitabi, Gihinga, Kizenga, Muhondo, Kavumu",
789,Rwanda,Western Province,Nyabihu,Rambura,Mutaho,Kavumbu,Identified,Requested,1013029,Suspended,67.0,-1.6706900000000002,29.468359999999997,0.0,Project Assessment - 2018.8.27,Rutazigurwa,Sukiro,Kiraza-Murambi,Nyiragokokora,Rusekera-bukinanyana,a1if1000002VnxzAAC,006f100000d6yLb,"Rutazigurwa, Sukiro, Kiraza-Murambi, Nyiragokokora, Rusekera-bukinanyana",
792,Rwanda,Southern Province,Ruhango,Ruhango,Tambwe,Buterana,Identified,Requested,1012548,Suspension,0.0,-2.18748,29.81693,0.0,Project Assessment - 2018.9.20,Rugondo,Bereshi,Gasanganya,Buterana,Nyamugagari,a1if1000002YDyNAAW,006f100000dhpDe,"Rugondo, Bereshi, Gasanganya, Buterana, Nyamugagari",
793,Rwanda,Western Province,Nyabihu,Rurembo,Gahondo,Bihira,Rejected,Technical,1013024,Suspended,0.0,-1.63099,29.58643,0.0,Project Assessment - 2018.8.27,Bihira,Kanama,Kazuba,Rugendabari,Murungu,a1if1000002VnxaAAC,006f100000d6yLC,"Bihira, Kanama, Kazuba, Rugendabari, Murungu",
795,Rwanda,Western Province,Nyabihu,Rurembo,Rwaza,Muturagara-Gatobo,Identified,Requested,1013025,Suspension,0.0,-1.6732099999999999,29.57457,0.0,Project Assessment - 2018.8.27,Gatobo,Muturagara,Musenyi-Tubuye-Murama,Muhungwe- kamenyo,Musezero-Rubona-Gisoro-Karambi,a1if1000002VnxfAAC,006f100000d6yLH,"Gatobo, Muturagara, Musenyi-Tubuye-Murama, Muhungwe- kamenyo, Musezero-Rubona-Gisoro-Karambi",
796,Rwanda,Western Province,Nyabihu,Rurembo-Shyira,Mwana-Muta,Kidandari,Rejected,Technical,1013023,Suspended,0.0,-1.6693900000000002,29.59021,0.0,Project Assessment - 2018.8.27,Kidandari,Kaziba,Ntende,Kamugarura-RubonaII,Nemba,a1if1000002VnxVAAS,006f100000d6yL7,"Kidandari, Kaziba, Ntende, Kamugarura-RubonaII, Nemba",
799,Rwanda,Western Province,Nyabihu,Rurembo-Rambura,Kilimbogo-Rwaza,Kinaba,Rejected,Technical,1013020,Suspended,0.0,-1.6876400000000003,29.5561,0.0,Project Assessment - 2018.8.27,Kinaba,Kabutozi,Cyugi,Nturo-Gasenyi,Cyogo-Karuharo,a1if1000002VnxGAAS,006f100000d6yKs,"Kinaba, Kabutozi, Cyugi, Nturo-Gasenyi, Cyogo-Karuharo",
803,Rwanda,Western Province,Nyabihu,Rurembo-Kintobo,Gahondo-Ryyo,Rwamigega,Rejected,Technical,1013026,Suspended,0.0,-1.67288,29.574679999999997,0.0,Project Assessment - 2018.8.27,Rwamigega,Kadaterurwa,Gabiro,Kamahwera,Gakoro,a1if1000002VnxkAAC,006f100000d6yLM,"Rwamigega, Kadaterurwa, Gabiro, Kamahwera, Gakoro",
817,Rwanda,Western Province,Rutsiro,Rusebeya,Mberi-Gakeri-Marimba,Rukorobeza,Rejected,Technical,1011305,,0.0,-1.94222,29.485,4330.0,Project Assessment - 2018.3.28,Marimba,Gakeri,Kabona,Rulimba,Bungwe,a1if10000023mWqAAI,006f100000cME4s,"Marimba, Gakeri, Kabona, Rulimba, Bungwe",
818,Rwanda,Western Province,Rutsiro,Rusebeya,Kabona,Nyamakanda,Rejected,Technical,1011304,,0.0,-1.948219,29.479638,800.0,Project Assessment - 2018.3.28,Kagano,Nyagasambu,Rurimba,Marimba,Gakeri,a1if10000023mWlAAI,006f100000cME4n,"Kagano, Nyagasambu, Rurimba, Marimba, Gakeri",
826,Rwanda,Southern Province,Nyamagabe,Kibumbwe,Kibibi-Bwenda,Kanyege,Rejected,Technical,1013419,Suspended,0.0,-2.396595,29.549834999999998,0.0,Project Assessment - 2018.9.12,Kanyege,Nyagatovu,Rwezamenyo,Bwingarura,Murambi,a1if1000002XwhTAAS,006f100000d7JCx,"Kanyege, Nyagatovu, Rwezamenyo, Bwingarura, Murambi",Kanyege-Nyagatovu
827,Rwanda,Southern Province,Nyamagabe,Kibumbwe,Nyakiza,Kanyinya,Rejected,Technical,1013423,Suspended,0.0,-2.374415,29.51966667,0.0,Project Assessment - 2018.9.12,Murambi,Nyakizu,Dusenyi,Gataba,Rwezamenyo,a1if1000002XwjZAAS,006f100000d7JDM,"Murambi, Nyakizu, Dusenyi, Gataba, Rwezamenyo",Murambi-Nyakizu
828,Rwanda,Southern Province,Nyamagabe,Mbazi-Kibumbwe,Bwemba-Mutiwgoma,Murwa,Rejected,Technical,1007482,Suspension,55.0,-2.3908400000000003,29.57068,0.0,Project Assessment - 2018.9.12,Murwa,Nyamirama,Murambi,Nyagatovu,Munyinya,a1if1000002XwkSAAS,006f100000a86FK,"Murwa, Nyamirama, Murambi, Nyagatovu, Munyinya",
829,Rwanda,Southern Province,Nyamagabe,Gasakka,Nyamugari-Nzega,Kabajogo,Rejected,Technical,1013425,Suspension,0.0,-2.48488667,29.57838,0.0,Project Assessment - 2018.9.12,Gitantu,Kabajogo,Kadoma,Sumba,Dusego,a1if1000002XwkhAAC,006f100000d7JDb,"Gitantu, Kabajogo, Kadoma, Sumba, Dusego",Kabajogo-Gitantu
830,Rwanda,Southern Province,Nyamagabe,Gasaka,Remera,Nyamifumba,Rejected,Technical,1013415,Suspended,0.0,-2.46756167,29.55258167,0.0,Project Assessment - 2018.9.12,Nyamifumba,Gitwa,Gitantu,Nyakibyeyi,Munombe,a1if1000002XwfSAAS,006f100000d7JCY,"Nyamifumba, Gitwa, Gitantu, Nyakibyeyi, Munombe",
831,Rwanda,Southern Province,Nyamagabe,Kibumbwe-Kibirizi,Bwenda-Bugarura,Rwasa,Identified,Requested,1013422,Suspended,70.0,-2.41763333,29.555675,0.0,Project Assessment - 2018.9.12,Munyinya,Kirwa,Kavumu,Muyange,Uwinyana,a1if1000002Xwj5AAC,006f100000d7JDH,"Munyinya, Kirwa, Kavumu, Muyange, Uwinyana",
832,Rwanda,Southern Province,Nyamagabe,Cyanika-Kigoma,Kiyumba-Kabuga,Gatare,Rejected,Technical,1013418,Suspension,0.0,-2.46321833,29.63056167,0.0,Project Assessment - 2018.9.12,Gatare,Ruhungu,Nyarucyamo,Gishike,Gikomero,a1if1000002XwgpAAC,006f100000d7JCn,"Gatare, Ruhungu, Nyarucyamo, Gishike, Gikomero",Gat-Ruhungu
834,Rwanda,Southern Province,Nyamagabe,Kibumbwe,Bwenda-Kibibi,Nyamirama,Rejected,Technical,1013414,Suspension,0.0,-2.385695,29.54770167,0.0,Project Assessment - 2018.9.12,Nyamirama,Kirwa,Murwa,Murambi,Ryingarura,a1if1000002XweyAAC,006f100000d7JCT,"Nyamirama, Kirwa, Murwa, Murambi, Ryingarura",Nyamirama-Kirwa
835,Rwanda,Southern Province,Nyamagabe,Mbazi,Ngara,Butare,Rejected,Technical,1013416,Suspension,0.0,-2.3796,29.610663300000002,0.0,Project Assessment - 2018.9.12,Butare,Nyagishumbu,Ruseke,Gisiza,Gaseke,a1if1000002Xwg6AAC,006f100000d7JCd,"Butare, Nyagishumbu, Ruseke, Gisiza, Gaseke",
837,Rwanda,Southern Province,Nyamagabe,Kibumbwe,Nyakiza-Kibibi,Kinyana,Rejected,Technical,1013420,Suspension,0.0,-2.37946833,29.54139167,0.0,Project Assessment - 2018.9.12,Kinyana,Karambo,Nyakizu,Kirwa,Ryingarura,a1if1000002XwibAAC,006f100000d7JD7,"Kinyana, Karambo, Nyakizu, Kirwa, Ryingarura",Kyana-Kirwa
838,Rwanda,Southern Province,Nyamagabe,Mbazi-Nyanza,Ngara-Kabuga,Ruseke,Rejected,Technical,1013417,Suspension,0.0,-2.372525,29.6006183,0.0,Project Assessment - 2018.9.12,Ruseke,Murandaryi,Butare,Nyagishumbu,Gaseke,a1if1000002XwgQAAS,006f100000d7JCi,"Ruseke, Murandaryi, Butare, Nyagishumbu, Gaseke",Ruseke-Muraryi
841,Rwanda,Southern Province,Nyaruguru,Gahurizo-Cyanyirankora,Kt-Gakuta,Kintare,Identified,Identified in Needs Assessment,1007593,Suspended,80.0,-2.63333889,29.454444,0.0,Project Assessment - 2018.9.26,Kanazi,Rwishywa,Remera,Gakuta,Rukore,a1if1000002YkhsAAC,006f100000a86H7,"Kanazi, Rwishywa, Remera, Gakuta, Rukore",
877,Rwanda,Western Province,Karongi,Mutuntu-Ruganda,Murengezo-Nyamugwagwa,Wiraro,Identified,Requested,1014083,Suspended,50.0,-2.24481167,29.44779833,0.0,Project Assessment - 2018.10.28,Murengezo,Kibari,Ngunduzi,Nyarutovu,Muremure,a1if1000002e4bUAAQ,006f100000d1fUh,"Murengezo, Kibari, Ngunduzi, Nyarutovu, Muremure",Wiraro-Kibari
888,Rwanda,Western Province,Karongi,Rwankuba,,Kurusumo,Rejected,Technical,1007390,Suspended,13.0,-2.16372,29.354390000000002,0.0,Project Assessment - 2018.10.28,Rurebero,Kigarama,Rubazo cell,Bisesero cell,Nyarusanga cell,a1if1000002e4aqAAA,006f100000a86Dq,"Rurebero, Kigarama, Rubazo cell, Bisesero cell, Nyarusanga cell",
889,Rwanda,Western Province,Nyamasheke,Ruharambuga,Kanazi,Rusambu,Rejected,Technical,1014008,Suspended,0.0,-2.431462,29.018171999999996,0.0,Project Assessment - 2018.10.27,Rusambu,Karambo,Rucyerereza,Gasumo,"Gacuzi, Runyinya",a1if1000002e3t4AAA,006f100000d1f2E,"Rusambu, Karambo, Rucyerereza, Gasumo, Gacuzi, Runyinya",
900,Rwanda,Western Province,Rusizi,Nkungu,Kiziguro,Kabuganza,Rejected,Technical,1014012,Suspended,0.0,-2.504565,28.994356,0.0,Project Assessment - 2018.10.27,Kabuganza,Mukenke,"Kabigohe, Gasarabuye","Byugaro, Rebero",Karengera sector,a1if1000002e3tOAAQ,006f100000d1f2Y,"Kabuganza, Mukenke, Kabigohe, Gasarabuye, Byugaro, Rebero, Karengera sector",
902,Rwanda,Northern Province,Gicumbi,Bwisige,Gihuke-Nyamugari,Nyamugari,Rejected,Technical,1009713,Suspension,0.0,-1.55224,30.163259999999998,0.0,Project Assessment - 2018.8.17,Nyamugari,Kidandari,Nyakagera,Birambo of Gatsibo,Rukoma of Gatsibo,a1if1000002Vi9EAAS,006f100000bMK1I,"Nyamugari, Kidandari, Nyakagera, Birambo of Gatsibo, Rukoma of Gatsibo",
903,Rwanda,Western Province,Rusizi,Nkungu,Kiziguro,Mpinga,Rejected,Technical,1014013,Suspended,0.0,-2.517903,29.002785999999997,0.0,Project Assessment - 2018.10.27,Mpinga,Kadashya,Karongoro,Kabisheshe,Karehe,a1if1000002e3tTAAQ,006f100000d1f2d,"Mpinga, Kadashya, Karongoro, Kabisheshe, Karehe",
917,Rwanda,Western Province,Karongi,Ruganda-Gashali,Kabgo-Tongati,Musasa 3A,Identified,Requested,1014027,Suspended,0.0,-2.19859833,29.51245167,0.0,Project Assessment - 2018.10.28,Kabingo cell,Kabaranda,Bizitiro,Nyagisozi,Gataba,a1if1000002e49OAAQ,006f100000d1fMT,"Kabingo cell, Kabaranda, Bizitiro, Nyagisozi, Gataba",Kabgo-Gataba
918,Rwanda,Western Province,Karongi,Mutuntu,Rwufi,Rasaniro,Rejected,Technical,1014077,Suspended,0.0,-2.24468,29.408479999999997,0.0,Project Assessment - 2018.10.28,Mutuntu village,Rasaniro village,Gasharu village,Mukungu village,Rugusa village,a1if1000002e4b0AAA,006f100000d1fU8,"Mutuntu village, Rasaniro village, Gasharu village, Mukungu village, Rugusa village",Mutuntu-Gasharu-Rasaniro
921,Rwanda,Western Province,Karongi,Ruganda,Biguhu-Rubona,Muremure,Rejected,Technical,1014048,Suspended,0.0,-2.2357400000000003,29.48168167,0.0,Project Assessment - 2018.10.28,Muremure,Maryohe,Nyagasozi,Rubona,Mugano Sector,a1if1000002e4YGAAY,006f100000d1fOj,"Muremure, Maryohe, Nyagasozi, Rubona, Mugano Sector",Muremure-Maryohe
925,Rwanda,Western Province,Karongi,Ruganda,Biguhu-Rubona,Rubona 2,Rejected,Technical,1014036,Suspended,0.0,-2.2408033,29.4925267,0.0,Project Assessment - 2018.10.28,Rubona,Muremure,Nyagasozi,Maryohe,Mugano sector,a1if1000002e4A7AAI,006f100000d1fNH,"Rubona, Muremure, Nyagasozi, Maryohe, Mugano sector",Muremure-Rubona
933,Rwanda,Western Province,Karongi,Ruganda-Gashali,Kabgo-Mwendo,Kabingo,Rejected,Technical,1014035,Suspended,0.0,-2.20644333,29.518888,0.0,Project Assessment - 2018.10.28,Kabingo cell,Gihororo,Gataba,Kabageni,Kagorora,a1if1000002e4A2AAI,006f100000d1fNC,"Kabingo cell, Gihororo, Gataba, Kabageni, Kagorora",Kabgo-Gihororo
934,Rwanda,Western Province,Karongi,Rugamba,Kabgo-Kivumu,Birambo,Rejected,Technical,1014060,Suspended,0.0,-2.21065,29.519803000000003,0.0,Project Assessment - 2018.10.28,Kabingo cell,Kagorora,Birambo,Kabageni,Gihororo,a1if1000002e4ZTAAY,006f100000d1fSC,"Kabingo cell, Kagorora, Birambo, Kabageni, Gihororo",Birambo-Kabgo
936,Rwanda,Western Province,Karongi,Gashali-Ruganda,Rugobagoba-Rugobagoba,Karutare,Rejected,Technical,1014051,Suspension,0.0,-2.164835,29.491473,0.0,Project Assessment - 2018.10.28,Karutare,Karambo,Gatare,Nyakivumba,Shungwe,a1if1000002e4YVAAY,006f100000d1fPD,"Karutare, Karambo, Gatare, Nyakivumba, Shungwe",Karut-Gat
938,Rwanda,Western Province,Karongi,Ruganda,Nyabikeri,Nyabikeri,Confirmed,,1014031,Suspension,44.0,-2.20900667,29.47158,0.0,Project Assessment - 2018.10.28,Nyabikeri,Gahororo,Kibingo,Musongati,Muciro,a1if1000002e49iAAA,006f100000d1fMs,"Nyabikeri, Gahororo, Kibingo, Musongati, Muciro",Nyabikeri-Gahororo
940,Rwanda,Western Province,Karongi,Ruganda,Biguhu-Rubona,Ngange,Rejected,Technical,1014030,Suspended,0.0,-2.230115,29.47708167,0.0,Project Assessment - 2018.10.28,Maryohe,Kiguhu,Gitwa,Murambi,Ngange,a1if1000002e49dAAA,006f100000d1fMi,"Maryohe, Kiguhu, Gitwa, Murambi, Ngange",Ngange-Maryohe
942,Rwanda,Western Province,Karongi,Ruganda,Biguhu,Nyagahara,Rejected,Technical,1014037,Suspended,0.0,-2.23438167,29.47267167,0.0,Project Assessment - 2018.10.28,Ngange,Murambi,Gitwa,Kiguhu,Maryohe,a1if1000002e4ACAAY,006f100000d1fNM,"Ngange, Murambi, Gitwa, Kiguhu, Maryohe",Ngange
947,Rwanda,Western Province,Karongi,Ruganda,Biguhu,Gikuku,Rejected,Technical,1014033,Suspended,0.0,-2.23241333,29.4756,0.0,Project Assessment - 2018.10.28,Ngange,Murambi,Gitwa,Kiguhu,Maryohe,a1if1000002e49sAAA,006f100000d1fN2,"Ngange, Murambi, Gitwa, Kiguhu, Maryohe",Ngange
948,Rwanda,Western Province,Rubavu,Nyundo,Gatovu-Kanyahene,Kanyahene,Rejected,Technical,1014043,Suspended,0.0,-1.72928,29.3348,0.0,Project Assessment - 2018.10.28,Kanyahene,Cyima,Ruhango,Mukondo cell,Kamugarura school and GS MUKONDO,a1if1000002e4XwAAI,006f100000d1fNv,"Kanyahene, Cyima, Ruhango, Mukondo cell, Kamugarura school and GS MUKONDO",
952,Rwanda,Western Province,Karongi,Ruganda,Biguhu-Rubona,Rubona 1,Rejected,Technical,1014034,Suspended,0.0,-2.2405167,29.491854999999997,0.0,Project Assessment - 2018.10.28,Rubona,Muremure,Nyagasozi,Maryohe,Mugano sector,a1if1000002e49xAAA,006f100000d1fN7,"Rubona, Muremure, Nyagasozi, Maryohe, Mugano sector",Rubona-Muremure
959,Rwanda,Western Province,Karongi,Rwankuba,,Wamahoro,Identified,Requested,1014068,Suspension,61.0,-2.14383,29.352209999999996,0.0,Project Assessment - 2018.10.28,Wamahoro,Kanyarusanga,Nyaruyaga,Kinyege,Gasharu,a1if1000002e4a7AAA,006f100000d1fTA,"Wamahoro, Kanyarusanga, Nyaruyaga, Kinyege, Gasharu",Wamahoro
962,Rwanda,Western Province,Karongi,Mutuntu-Ruganda,Murengezo-Biguhu,Gisiza,Identified,Requested,1014072,Suspension,0.0,-2.25545,29.477909999999998,0.0,Project Assessment - 2018.10.28,Nyarutovu,Nyagasozi,Mayombo,Ngundusi,Muremure,a1if1000002e4aRAAQ,006f100000d1fTZ,"Nyarutovu, Nyagasozi, Mayombo, Ngundusi, Muremure",Nyarutovu-Nyagasozi
964,Rwanda,Western Province,Karongi,Rwankuba,Bigugu-Muni,Munini I,Prospecting,,1014052,Suspended,48.0,-2.18836,29.37793,0.0,Project Assessment - 2018.10.28,Byimana village,Nyantwa,Muyira,Kinaba,Gakangaga,a1if1000002e4YaAAI,006f100000d1fPN,"Byimana village, Nyantwa, Muyira, Kinaba, Gakangaga",Nyantwa-Byimana
965,Rwanda,Western Province,Karongi,Rwankuba,Bigugu-Muni,Rwankuba,Rejected,Technical,1014050,Suspended,0.0,-2.18135,29.37769,0.0,Project Assessment - 2018.10.28,Nyantwa village,Muvumba village,Ruhuha village,Gakangaga,Mifuba,a1if1000002e4YQAAY,006f100000d1fOy,"Nyantwa village, Muvumba village, Ruhuha village, Gakangaga, Mifuba",Nyantwa-Muvumba
970,Rwanda,Western Province,Karongi,Mutuntu,Gasharu-Kanyege,Cyunyu,Identified,Requested,1014067,Suspension,70.0,-2.25799,29.413809999999998,0.0,Project Assessment - 2018.10.28,Gasharu,Mukongoro,Gisayura,Kavumu,Nyarubuye,a1if1000002e4a2AAA,006f100000d1fT5,"Gasharu, Mukongoro, Gisayura, Kavumu, Nyarubuye",Gasharu-Mukongoro
971,Rwanda,Western Province,Karongi,Rwankuba,Nyarusanga,Gasharu,Confirmed,,1014069,Suspended,46.0,-2.13333,29.3625,0.0,Project Assessment - 2018.10.28,Gasharu,Wingwa,Kigogwe,Karambo,Bucyurabuhoro,a1if1000002e4aCAAQ,006f100000d1fTF,"Gasharu, Wingwa, Kigogwe, Karambo, Bucyurabuhoro",Gasharu-Wgwa-Kigogwe
974,Rwanda,Western Province,Karongi,Mutuntu-Mushubi,Gisayura-Ruteteri,Gatare,Identified,Requested,1014061,Suspension,130.0,-2.2685400000000002,29.4563,0.0,Project Assessment - 2018.10.28,Mayombo,Rwamiko,Ngundasi village,Gatwa village,GASHUBI village,a1if1000002e4ZYAAY,006f100000d1fSW,"Mayombo, Rwamiko, Ngundasi village, Gatwa village, GASHUBI village",Mayombo-Rwamiko
975,Rwanda,Western Province,Karongi,Mutuntu-Ruganda,Byogo-Nyamugwagwa,Rugogo,Rejected,Technical,1014071,Suspended,0.0,-2.20755,29.44008,0.0,Project Assessment - 2018.10.28,Rugogo village,Nyamugwagwa,Kaduha,Burango,Murambi,a1if1000002e4aMAAQ,006f100000d1fTP,"Rugogo village, Nyamugwagwa, Kaduha, Burango, Murambi",Rugogo
976,Rwanda,Western Province,Karongi,Rubengera,Kibirizi-Burunga,Matyazo,Identified,Requested,1013776,Suspended,0.0,-2.06165,29.39508,0.0,Project Assessment - 2018.10.6,Kagarama,Matyazo,Twimbogo,Majuri,Ruyenzi,a1if1000002m8Q8AAI,006f100000d7wXs,"Kagarama, Matyazo, Twimbogo, Majuri, Ruyenzi",Kagarama-Matyazo
977,Rwanda,Western Province,Karongi,Rugabano,Gisiza-Rwungo,Rubona,Rejected,Technical,1013782,Suspension,0.0,-2.13374,29.504720000000002,0.0,Project Assessment - 2018.10.6,Rubona,Kabuye,Gitwa,Kamina,Rugabano,a1if1000002m8QcAAI,006f100000d7wYR,"Rubona, Kabuye, Gitwa, Kamina, Rugabano",Rubona-Kabuye
984,Rwanda,Kigali,Kicukiro,Kanombe,Busanza-Ruburizi,Antenna 2,Rejected,Technical,1014439,Suspension,0.0,-1.98388889,30.13861111,0.0,Project Assessment - 2018.11.19,Antenne,Amahoro,Abarezi,Umunara,Susuruka,a1if1000002gfcAAAQ,006f100000eevLS,"Antenne, Amahoro, Abarezi, Umunara, Susuruka",
985,Rwanda,Kigali,Kicukiro,Kanombe-Rubirizi,Busanza,Antenne,Rejected,Technical,1014440,Suspension,0.0,-1.9761111,30.1425,0.0,Project Assessment - 2018.11.19,Antenne,Abarezi,Umunara,Sususruka,Amahoro,a1if1000002gfcyAAA,006f100000eevLX,"Antenne, Abarezi, Umunara, Sususruka, Amahoro",
995,Rwanda,Western Province,Karongi,Rwankuba,Nyakamira,Nyakamira,Identified,Requested,1013774,Suspended,0.0,-2.1750700000000003,29.42564,0.0,Project Assessment - 2018.10.6,Nyarushekera village,Mahembe village,Himbo,Rukore,Musango,a1if1000002m8PyAAI,006f100000d7wXd,"Nyarushekera village, Mahembe village, Himbo, Rukore, Musango",Nyamushekera-Mahembe
998,Rwanda,Western Province,Karongi,Rugabano,Tyazo,Nyamwenda,Rejected,Technical,1013783,Suspension,0.0,-2.1213,29.486520000000002,0.0,Project Assessment - 2018.10.6,Kirabo,Wurugogwe,Karambi,Gitega,Bubazi,a1if1000002m8QhAAI,006f100000d7wYW,"Kirabo, Wurugogwe, Karambi, Gitega, Bubazi",
999,Rwanda,Western Province,Karongi,Rugabano-Rubengera,Kabuga-Gitwa,Gisiza,Rejected,Technical,1013780,Suspension,0.0,-2.0838099999999997,29.45655,0.0,Project Assessment - 2018.10.6,Bihembe,Gitwa,Mukimba,Kigarama,Migina,a1if1000002m8QSAAY,006f100000d7wYH,"Bihembe, Gitwa, Mukimba, Kigarama, Migina",Bihembe-Kibe
1002,Rwanda,Western Province,Karongi,Rugabano-Gashari,Gisiza-Birambo,Ntarabana,Rejected,Technical,1013781,Suspended,0.0,-2.13355,29.5053,0.0,Project Assessment - 2018.10.6,Rubona,Ntarabana,Musasa,Kagangare,Kabasare,a1if1000002m8QXAAY,006f100000d7wYM,"Rubona, Ntarabana, Musasa, Kagangare, Kabasare",Rubona-Ntarabana
1003,Rwanda,Western Province,Karongi,Rwankuba-Mutuntu,Nyakamira-Byogo,Mubahayo,Rejected,Technical,1013772,Suspended,0.0,-2.18591,29.435129999999997,0.0,Project Assessment - 2018.10.6,Musango,Mahembe,Gasenyi,Kivumu,Rugogo,a1if1000002m8PoAAI,006f100000d7wXT,"Musango, Mahembe, Gasenyi, Kivumu, Rugogo",Musango-Kivumu
1004,Rwanda,Western Province,Karongi,Rwankuba,Nyakamira,Agakomeye,Identified,Requested,1013773,Suspended,0.0,-2.17593,29.42192,0.0,Project Assessment - 2018.10.6,Mahembe,Rukore,Nyarushekera,Kivumu,Kigarama,a1if1000002m8PtAAI,006f100000d7wXY,"Mahembe, Rukore, Nyarushekera, Kivumu, Kigarama",Mahembe-Nyarushekera
1005,Rwanda,Western Province,Karongi,Rubengera,Ruragwe,Nyagasozi,Rejected,Technical,1013778,Suspension,0.0,-2.08015,29.4189,0.0,Project Assessment - 2018.10.6,Nyagasozi,Nyagatovu,Bunyankungu,Muvungu,Kigarama,a1if1000002m8QIAAY,006f100000d7wY2,"Nyagasozi, Nyagatovu, Bunyankungu, Muvungu, Kigarama",Nyagasozi-Nyagatovu
1006,Rwanda,Western Province,Karongi,Rugabano-Gitesi,Kabuga-Gitega,Kigarama,Rejected,Technical,1013779,Suspended,0.0,-2.0924,29.44834,0.0,Project Assessment - 2018.10.6,Kigarama,Bugoberi,Migina,Karambo,Nyagasozi,a1if1000002m8QNAAY,006f100000d7wY7,"Kigarama, Bugoberi, Migina, Karambo, Nyagasozi",Kigarama-Bugoberi
1007,Rwanda,Eastern Province,Kayonza,Ruramira,Nkamba,Nyagacyamo,Rejected,Technical,1013828,Suspension,0.0,-1.9592,30.478379999999998,0.0,Project Assessment - 2018.10.8,Mubuga,Sabununga,Karambi,Gasura,Nyagacyamo,a1if1000002mE7vAAE,006f100000d7xpL,"Mubuga, Sabununga, Karambi, Gasura, Nyagacyamo",
1008,Rwanda,Eastern Province,Kayonza,Rwinkwavu,Mukoyoyo,Vungiro,Rejected,Technical,1013831,Suspension,0.0,-1.9485299999999999,30.66917,0.0,Project Assessment - 2018.10.8,Vungiro,Umuyenzi,Rwaburara,Nyankore,Kiyovu,a1if1000002mE8AAAU,006f100000d7xpa,"Vungiro, Umuyenzi, Rwaburara, Nyankore, Kiyovu",
1010,Rwanda,Eastern Province,Kayonza,Murundi,Ryamanyoni,Ryamanyoni,Rejected,Technical,1013833,Suspension,0.0,-1.74678,30.50085,0.0,Project Assessment - 2018.10.8,Nyabugando,Rucaca,Akanyerezo,Karambi,Kibari,a1if1000002mE8bAAE,006f100000d7xqE,"Nyabugando, Rucaca, Akanyerezo, Karambi, Kibari",
1011,Rwanda,Eastern Province,Kayonza,Murundi,Murundi,Rucaca,Rejected,Technical,1013832,Suspension,0.0,-1.7477099999999999,30.50005,0.0,Project Assessment - 2018.10.8,Rucaca,Akanyerezo,Kibari,Karambi,Nyabugando,a1if1000002mE8WAAU,006f100000d7xq9,"Rucaca, Akanyerezo, Kibari, Karambi, Nyabugando",
1013,Rwanda,Western Province,Nyamasheke,Nyabitekeri,Mariba,Kamabera,Rejected,Technical,1013905,Suspended,0.0,-2.365632,29.008657,0.0,Project Assessment - 2018.10.15,Kamabera,Buhinga,Gakoma,Karango,Nyarusange,a1if1000002mx5TAAQ,006f100000d88Te,"Kamabera, Buhinga, Gakoma, Karango, Nyarusange",
1016,Rwanda,Eastern Province,Kayonza,Murama,Muko,Ngoma,Rejected,Technical,1013836,Other,0.0,-2.05688,30.59736,0.0,Project Assessment - 2018.10.9,Ngoma,Rebezo,Gihazo,Karama,Kinyinya,a1if1000002mE8vAAE,006f100000d7xv4,"Ngoma, Rebezo, Gihazo, Karama, Kinyinya",
1030,Rwanda,Northern Province,Gicumbi,Kaniga,Kaniga,Bugomba,Rejected,Technical,1009704,Suspended,0.0,-1.4491100000000001,30.04685,0.0,Project Assessment - 2018.8.11,Kamushure,Nyagatare,Karambo,Rugarama,Gatare and Ryakabanga,a1if10000025nzhAAA,006f100000bMJys,"Kamushure, Nyagatare, Karambo, Rugarama, Gatare and Ryakabanga",
1037,Rwanda,Southern Province,Nyaruguru,Nyagisozi,Nyagisozi,Ryabidandi,Rejected,Technical,1013614,Suspended,0.0,-2.74995333,29.62531333,0.0,Project Assessment - 2018.9.26,Ryabidandi,Nyamiyaga,Muriza,Uwimfizi,Nyagishayo,a1if1000002YkkwAAC,006f100000d7hE8,"Ryabidandi, Nyamiyaga, Muriza, Uwimfizi, Nyagishayo",Ryabidi-Nyamiyaga
1038,Rwanda,Southern Province,Nyaruguru,Rusenge,Mariba-Mubuga,Gihango,Identified,Identified in Needs Assessment,1007540,Suspension,81.0,-2.67791,29.59175,0.0,Project Assessment - 2018.9.26,Ginango,Murambi,Nyamugari,Rasaniro,Kabuye,a1if1000002YkkrAAC,006f100000a86GG,"Ginango, Murambi, Nyamugari, Rasaniro, Kabuye",Gihango-Murambi
1041,Rwanda,Western Province,Karongi,Rugabano-Gashari,Rwungo-Birambo,Kamonyo,Identified,Requested,1013786,Suspension,0.0,-2.1484,29.48612,0.0,Project Assessment - 2018.10.6,Gasharu,Nyabikenke,Gashari,Kabirizi,Kabuye,a1if1000002m8QwAAI,006f100000d7wYq,"Gasharu, Nyabikenke, Gashari, Kabirizi, Kabuye",Gasharu-Nyabikenke
1042,Rwanda,Southern Province,Nyaruguru,Kivu,Cyanyirankora-Kivu,Businde,Rejected,Technical,1007579,Suspension,40.0,-2.6366549999999997,29.47937167,0.0,Project Assessment - 2018.9.27,Businde,Cyanyirankora,Ruganza,Rusuzumiro,Rugerero,a1if1000002YklBAAS,006f100000a86Gt,"Businde, Cyanyirankora, Ruganza, Rusuzumiro, Rugerero",Rusuzumiro-Busde
1045,Rwanda,Southern Province,Nyaruguru,Muganza,Rukore,Karanka,Rejected,Technical,1007547,Suspension,20.0,-2.66297667,29.44955667,0.0,Project Assessment - 2018.9.27,Karanka,Mazimeru,Migendo,Cyurukore,Nyagisenyi,a1if1000002Yl4cAAC,006f100000a86GN,"Karanka, Mazimeru, Migendo, Cyurukore, Nyagisenyi",Karanka-Uwzira
1046,Rwanda,Southern Province,Nyaruguru,Nyagisozi,Nkakwa-Mwoya,Ruharazi,Complete,In Service,1009311,,45.0,-2.77676167,29.62627167,0.0,Project Assessment - 2018.9.27,Mwoya,Nkakwa,Bwerankori,Agatovu,Kaduha,a1if1000002YkngAAC,006f100000asEzN,"Mwoya, Nkakwa, Bwerankori, Agatovu, Kaduha",
1050,Rwanda,Southern Province,Nyaruguru,Muganza,Uwakiza-Samiyonga,Migendo,Identified,Identified in Needs Assessment,1007548,Suspended,40.0,-2.667,29.4581,0.0,Project Assessment - 2018.9.27,Migendo,Mazimeru,Murambi,Kigwene,Sekera,a1if1000002YlIjAAK,006f100000a86GO,"Migendo, Mazimeru, Murambi, Kigwene, Sekera",Migendo-Mazimeru
1053,Rwanda,Northern Province,Rulindo,Ngoma-Mbogo,Mugote-Mushari,Rukoma,Rejected,Technical,1007645,Suspended,35.0,-1.79476,29.988459999999996,0.0,Project Assessment - 2018.8.16,Rukoma,Gitabage,Marembo,Nyakibyeyi,"Bukongi,Marebe, sakara",a1if1000002Vi6AAAS,006f100000a86Hx,"Rukoma, Gitabage, Marembo, Nyakibyeyi, Bukongi,Marebe, sakara",
1056,Rwanda,Southern Province,Nyamagabe,Uwinkingi-Musebeya,Gahira,Gahira,Rejected,Technical,1007464,Suspended,11.0,-2.448025,29.4665,0.0,Project Assessment - 2018.8.11,Bunyunyu,Gakereko,Bitaba,Kunyu,Gititi,a1if10000025o0uAAA,006f100000a86F2,"Bunyunyu, Gakereko, Bitaba, Kunyu, Gititi",
1057,Rwanda,Southern Province,Nyamagabe,Uwinkingi,,Mwishogwe-nyirarushyunda,Rejected,Technical,1012696,Suspended,0.0,-2.4915700000000003,29.42108,0.0,Project Assessment - 2018.8.11,Mwishyogwe village,Subukiniro village,Rigeti village,Nyamugari village,Nyambiriri,a1if10000025o0BAAQ,006f100000dhyaY,"Mwishyogwe village, Subukiniro village, Rigeti village, Nyamugari village, Nyambiriri",Mwishyogwe
1058,Rwanda,Southern Province,Nyamagabe,Uwinkingi-Buruhukiro,Kibyagira,Kabuga,Rejected,Technical,1007479,Suspended,15.0,-2.45674667,29.43966667,0.0,Project Assessment - 2018.8.11,Kabuga village,Bushigishigi village,Bishya village,Cyumuganza village,Rusekera village,a1if10000025o0GAAQ,006f100000a86FH,"Kabuga village, Bushigishigi village, Bishya village, Cyumuganza village, Rusekera village",
1060,Rwanda,Northern Province,Rulindo,Cyinzuzi,Kidogo,Gihinga,Identified,Identified in Needs Assessment,1007637,Suspension,17.0,-1.75328,30.01969,0.0,Project Assessment - 2018.8.2,Gihinga,Kigarama,Kanyoni,Kamatongo,Kirambo,a1if10000025IXxAAM,006f100000a86Hp,"Gihinga, Kigarama, Kanyoni, Kamatongo, Kirambo",
1063,Rwanda,Northern Province,Rulindo,Base-Cyungo,Rwamahwa-Cyungo,Gitovu,Identified,Requested,1007649,Suspension,34.0,-1.62269,29.890359999999998,0.0,Project Assessment - 2018.8.2,Gitovu,Kibuye,Kidomo,Rugaragara,Kabahama,a1if10000025IX9AAM,006f100000a86I1,"Gitovu, Kibuye, Kidomo, Rugaragara, Kabahama",
1067,Rwanda,Southern Province,Nyanza,Ntyazo-Gikonko,Kagunga-Cyiri,Cyiri,Rejected,Technical,1013279,Suspension,0.0,-2.45403,29.84815,0.0,Project Assessment - 2018.9.2,Samuduha,Rusasa,Kimigunga - Kamabuye,Sanzu,Murambi,a1if1000002WP9pAAG,006f100000d767S,"Samuduha, Rusasa, Kimigunga - Kamabuye, Sanzu, Murambi",
1071,Rwanda,Southern Province,Nyamagabe,Musange-Nyagisozi,Jenda,Nyakirambi,Identified,Requested,1013289,Suspension,0.0,-2.3101380000000002,29.602603000000002,0.0,Project Assessment - 2018.9.4,Nyakirambi,Kayogoro,Masangano,Warukara,Gatoki,a1if1000002Wg5fAAC,006f100000d78Ou,"Nyakirambi, Kayogoro, Masangano, Warukara, Gatoki",
1073,Rwanda,Southern Province,Nyanza,Kigoma,Butara-Butansda,Marongi,Rejected,Technical,1013274,Suspended,0.0,-2.30781,29.814840000000004,0.0,Project Assessment - 2018.9.2,Butara,Gasharu,Marongi,Kigoma,Kibavu,a1if1000002WP8IAAW,006f100000d7673,"Butara, Gasharu, Marongi, Kigoma, Kibavu",
1075,Rwanda,Southern Province,Nyanza,Kigoma-Ntongwe,Murja-Kba,Bibumba,Identified,Requested,1013275,Suspension,69.0,-2.2794,29.8712,0.0,Project Assessment - 2018.9.2,Burambe,Muramba,Nyarukurazo,Marimba,Kamakara,a1if1000002WP8hAAG,006f100000d7678,"Burambe, Muramba, Nyarukurazo, Marimba, Kamakara",
1082,Rwanda,Northern Province,Rulindo,Nyirangarama,Nyirangarama,Nyirangarama,Rejected,Technical,1007626,Suspension,40.0,-1.6688900000000002,29.893890000000003,0.0,Project Assessment - 2018.7.27,Nyirangarama,Tare,Rugote,Nyamugari,Gihora,a1if10000024rtNAAQ,006f100000a86He,"Nyirangarama, Tare, Rugote, Nyamugari, Gihora",
1087,Rwanda,Western Province,Nyabihu,Mukamira-Kintobo,Rurengeri-Nyamugari,Kinoni,Rejected,Technical,1007451,Suspended,8.0,-1.6798400000000002,29.51707,0.0,Project Assessment - 2018.8.17,Maziba,Kabagundu,"Rugarambiro,Rutovu",Gasura,Kiyumba,a1if1000002Vi6oAAC,006f100000a86Ep,"Maziba, Kabagundu, Rugarambiro,Rutovu, Gasura, Kiyumba",
1095,Rwanda,Northern Province,Gakenke,Gakenke-Mataba,Kagoma-Buyange,Kabarashi,Rejected,Technical,1007344,Suspended,25.0,-1.6947222219999998,29.79777778,0.0,Project Assessment - 2018.8.4,Gabiro village,Kamatare village,Rugendabari village,Bukonde village,Minazi village,a1if10000025a5gAAA,006f100000a86D6,"Gabiro village, Kamatare village, Rugendabari village, Bukonde village, Minazi village",
1100,Rwanda,Southern Province,Nyamagabe,Kaduha,Kavumu,Gafukuru,Rejected,Technical,1013287,Suspended,0.0,-2.331309,29.535533,0.0,Project Assessment - 2018.9.4,Bamba,Joma,Gitabage,Kamonyi,"Kirehe,kivumu",a1if1000002Wg3PAAS,006f100000d78Of,"Bamba, Joma, Gitabage, Kamonyi, Kirehe,kivumu",
1105,Rwanda,Southern Province,Nyamagabe,Uwinkingi-Buruhukiro,Rugogwe,Sabake,Identified,Identified in Needs Assessment,1007472,Suspension,19.0,-2.47291333,29.42335667,0.0,Project Assessment - 2018.9.1,Rugeti,Minaga,Sabake,Mujerenge,Tantamara,a1if1000002WHDNAA4,006f100000a86FA,"Rugeti, Minaga, Sabake, Mujerenge, Tantamara",
1110,Rwanda,Southern Province,Nyamagabe,Musange-Gashari,Nyagisozi,Uwabarashi,Identified,Identified in Needs Assessment,1007473,Suspension,83.0,-2.21156,29.544015,0.0,Project Assessment - 2018.9.4,Uwabarshi,Ruhuga,Kibaga,Dusenyi,Kayogoro,a1if1000002Wfx7AAC,006f100000a86FB,"Uwabarshi, Ruhuga, Kibaga, Dusenyi, Kayogoro",
1123,Rwanda,Southern Province,Nyamagabe,Uwinkingi,Rugogwe-Kizimyamuriro,Rugeti,Complete,In Service,1007466,Suspended,68.0,-2.47640667,29.4208,0.0,Project Assessment - 2018.9.1,Rugeti,Mwishyogwe,Tantamara,Gishwati,Bishya,a1if1000002WH8wAAG,006f100000a86F4,"Rugeti, Mwishyogwe, Tantamara, Gishwati, Bishya",
1124,Rwanda,Southern Province,Nyamagabe,Kamegeri,Kamegeri-Rususa,Rweru,Complete,In Service,1013218,Suspension,46.0,-2.52565,29.568184999999996,0.0,Project Assessment - 2018.9.1,Rweru,Kigarama(Rususa),Baro,Gitwa,Bahina,a1if1000002WHMUAA4,006f100000d75v6,"Rweru, Kigarama(Rususa), Baro, Gitwa, Bahina",
1125,Rwanda,Southern Province,Nyamagabe,Tare,Gatovu-Buhoro,Kanserege,Prospecting,,1013215,Suspended,92.0,-2.5265,29.510022999999997,0.0,Project Assessment - 2018.9.1,Kanserege,Gasenge,Mubezi,Ryarubondo,Rwufe,a1if1000002WGxAAAW,006f100000d75uh,"Kanserege, Gasenge, Mubezi, Ryarubondo, Rwufe",
1126,Rwanda,Southern Province,Nyamagabe,Kibirizi,Gashiha-Gakanka,Muduha,Identified,Identified in Needs Assessment,1007491,Suspended,17.0,-2.436162,29.52308,0.0,Project Assessment - 2018.9.1,Muduha,Nyabubare,Muganza,Gasharu,Rukamiro,a1if1000002WHEuAAO,006f100000a86FT,"Muduha, Nyabubare, Muganza, Gasharu, Rukamiro",
1127,Rwanda,Southern Province,Nyamagabe,Tare,Gatovu-Buhoro,Gasenge,Rejected,Technical,1013217,Suspended,0.0,-2.5356799999999997,29.5136,0.0,Project Assessment - 2018.9.1,Gasenge,Ruziba,Muhati,Kigusa,Ryarubondo,a1if1000002WH6lAAG,006f100000d75uw,"Gasenge, Ruziba, Muhati, Kigusa, Ryarubondo",
1128,Rwanda,Southern Province,Nyamagabe,Tare,Gatovu-Buhoro,Kigusa,Identified,Requested,1013214,Suspended,0.0,-2.55117833,29.51450333,0.0,Project Assessment - 2018.9.1,Kigusa,Ryarubondo,Gasenge,Biraro,Ruziba,a1if1000002WGuzAAG,006f100000d75uc,"Kigusa, Ryarubondo, Gasenge, Biraro, Ruziba",
1129,Rwanda,Southern Province,Nyamagabe,Tare,Buhoro,Kirwa,Rejected,Technical,1013216,Suspension,0.0,-2.53163167,29.535859999999996,0.0,Project Assessment - 2018.9.1,Kirwa,Gitovu,Ryarubondo,Kanserege,Ntaruka,a1if1000002WH0YAAW,006f100000d75ur,"Kirwa, Gitovu, Ryarubondo, Kanserege, Ntaruka",Kirwa-Gitovu
1130,Rwanda,Southern Province,Nyamagabe,Kamegeri,Kirehe,Kigarama,Rejected,Technical,1013219,Suspension,0.0,-2.500105,29.56810167,0.0,Project Assessment - 2018.9.1,Kigarama,Gasharu,Kamiro,Ryanyirataba,Gitantu,a1if1000002WHNDAA4,006f100000d75vB,"Kigarama, Gasharu, Kamiro, Ryanyirataba, Gitantu",
1135,Rwanda,Northern Province,Gicumbi,Bwisige,Nyabushgitwa-Gahondo,Gahondo,Rejected,Technical,1010577,Suspended,0.0,-1.539721,30.127623999999997,0.0,Project Assessment - 2018.8.11,Gahondo,Cyamukanya-Gihuke,Murehe-Bihuke,Kumana-Gihuke,Buhuha- Nyabushingitwa,a1if10000025nyoAAA,006f100000biKAB,"Gahondo, Cyamukanya-Gihuke, Murehe-Bihuke, Kumana-Gihuke, Buhuha- Nyabushingitwa",
1136,Rwanda,Northern Province,Gicumbi,Bwisige,Gihuke-Nyagakizi,Nyagakizi,Identified,Requested,1009714,Suspended,35.0,-1.53328,30.1727,0.0,Project Assessment - 2018.8.11,Nyagakizi,Mubirembo (Gatsibo),Nyakagera,Nyamugari-,Kabeza,a1if10000025nyjAAA,006f100000bMK1X,"Nyagakizi, Mubirembo (Gatsibo), Nyakagera, Nyamugari-, Kabeza",
1137,Rwanda,Western Province,Nyamasheke,Rangiro-Cyato,Murambi-Murambi,Murambi,Rejected,Technical,1014117,Suspension,0.0,-2.38842,29.168329999999997,0.0,Project Assessment - 2018.10.29,Murambi,Ryarubasha,Nyarwungo-Nyakabingo,Rugeyo,Susa,a1if1000002e6iDAAQ,006f100000d1h94,"Murambi, Ryarubasha, Nyarwungo-Nyakabingo, Rugeyo, Susa",
1138,Rwanda,Southern Province,Nyamagabe,Kamegeri,Kamegeri-Nyamiga,Sovu,Identified,Requested,1013225,Suspended,35.0,-2.51053167,29.53582167,0.0,Project Assessment - 2018.9.2,Sovu,Maryohe,Kinyovu,Ryanyirataba,Ntaruka,a1if1000002WLQ3AAO,006f100000d75zU,"Sovu, Maryohe, Kinyovu, Ryanyirataba, Ntaruka",
1139,Rwanda,Southern Province,Nyamagabe,Kibirizi,Uwdekezi-Munyege,Nyarurambi,Rejected,Technical,1007485,Suspension,45.0,2.4724,29.5,0.0,Project Assessment - 2018.9.2,Nyarurambi,Mugote,Kimina,Gatovu,Birembo,a1if1000002WLBwAAO,006f100000a86FN,"Nyarurambi, Mugote, Kimina, Gatovu, Birembo",
1142,Rwanda,Southern Province,Muhanga,Kibangu-Muhororo,,Kwa Munyarubuga,Rejected,,1013255,Suspended,0.0,-1.87302569,29.67017014,0.0,Project Assessment - 2018.9.2,Kimisange,Nzarwa,Murambi,Rumirantege,Kirehe,a1if1000002WMTDAA4,006f100000d761u,"Kimisange, Nzarwa, Murambi, Rumirantege, Kirehe",Kimisange
1143,Rwanda,Southern Province,Nyamagabe,Tare-Kamegeri,Buhoro-Kamegeri,Ntaruka,Identified,Requested,1013220,Suspension,0.0,-2.52459333,29.54972333,0.0,Project Assessment - 2018.9.2,Ntaruka,Nyabwoma,Rususa,Kizi,Kamiro,a1if1000002WLCGAA4,006f100000d75z5,"Ntaruka, Nyabwoma, Rususa, Kizi, Kamiro",
1148,Rwanda,Southern Province,Nyaruguru,Ruramba,Gabiro,Kansi,Identified,Requested,1014152,Suspension,0.0,-2.60126,29.527390000000004,0.0,Project Assessment - 2018.10.29,Kansi,Kageyo,Bukoro,Ryamuhumbi-Nyamirambo,Nyarugano,a1if1000002e6nSAAQ,006f100000d1hOE,"Kansi, Kageyo, Bukoro, Ryamuhumbi-Nyamirambo, Nyarugano",
1149,Rwanda,Western Province,Nyamasheke,Shangi-Bishekeri,Shangi-Karusimbi,Kabere,Rejected,Technical,1014148,Suspended,0.0,-2.39624002,28.996980600000004,0.0,Project Assessment - 2018.10.29,Kabere,Taba_ Gasharu,Rwumuyaga,Remera_Gakombe,Kigogu,a1if1000002e6m0AAA,006f100000d1hMS,"Kabere, Taba_ Gasharu, Rwumuyaga, Remera_Gakombe, Kigogu",
1151,Rwanda,Western Province,Rusizi,Giheke,Ntura,Kabyuma,Rejected,Technical,1014156,Suspended,0.0,-2.4492599999999998,28.95522,0.0,Project Assessment - 2018.10.29,Kabyuma,Kavuye-Kamuhozi,Bubanga,Ruvumbu,Karambi-Kagarama,a1if1000002e6oBAAQ,006f100000d1hPl,"Kabyuma, Kavuye-Kamuhozi, Bubanga, Ruvumbu, Karambi-Kagarama",
1152,Rwanda,Western Province,Rusizi,Gikheke,Ntura-Kamashangi,Karambi,Rejected,Technical,1014154,Suspension,0.0,-2.43675,28.952270000000002,0.0,Project Assessment - 2018.10.29,Karambi,Bubanga,Rebero-Kaburyogoro,Gitwa,Rukombe,a1if1000002e6nhAAA,006f100000d1hOx,"Karambi, Bubanga, Rebero-Kaburyogoro, Gitwa, Rukombe",
1153,Rwanda,Western Province,Rusizi,Kagano,Mubumbano,Kabuye,Rejected,Technical,1014161,Suspension,0.0,-2.3468400000000003,29.114320000000003,0.0,Project Assessment - 2018.10.29,Kabuyecyeru,Makoko,Kabagabo,Gikomero,Bisoro,a1if1000002e6okAAA,006f100000d1hQK,"Kabuyecyeru, Makoko, Kabagabo, Gikomero, Bisoro",
1155,Rwanda,Western Province,Nyamasheke,Kagano,Mubumbano,Murambi- Makoko,Rejected,Technical,1014113,Suspension,0.0,-2.34996,29.11603,0.0,Project Assessment - 2018.10.29,Makoko,Kabuyecyeru,Kabagabo-Gikomero,Murambi_Mpombo,Bisoro-Ryarutungura-Gasharu,a1if1000002e6hoAAA,006f100000d1h8G,"Makoko, Kabuyecyeru, Kabagabo-Gikomero, Murambi_Mpombo, Bisoro-Ryarutungura-Gasharu",
1159,Rwanda,Northern Province,Burera,Rugengabari,Nyanamo,Kiziba,Identified,Requested,1013222,Suspension,0.0,-1.55473,29.83253,0.0,Project Assessment - 2018.9.2,Kiziba,Bishingwe,Kabukoko,Ntazi,Mugonero,a1if1000002WLJCAA4,006f100000d75zF,"Kiziba, Bishingwe, Kabukoko, Ntazi, Mugonero",Kiziba
1163,Rwanda,Southern Province,Muhanga,Kibangu-Nyabinoni,Ryakanimba-Gashorera,Mu Gisuma,Rejected,Technical,1013257,Suspended,0.0,-1.81917977,29.69307801,0.0,Project Assessment - 2018.9.2,Musekera,Mwumba,Mushubaguriko,Ntangamenyo,Ndaragati,a1if1000002WMUVAA4,006f100000d7624,"Musekera, Mwumba, Mushubaguriko, Ntangamenyo, Ndaragati",Mwumba-Ndaragati
1165,Rwanda,Western Province,Rusizi,Giheke,Cyendajuru,Kabeza,Rejected,Technical,1014142,Suspended,0.0,-2.46169,28.96475,0.0,Project Assessment - 2018.10.29,Kabeza,Burembo,Karambo,Kibakure,Murinzi,a1if1000002e6lHAAQ,006f100000d1hKH,"Kabeza, Burembo, Karambo, Kibakure, Murinzi",
1168,Rwanda,Northern Province,Burera,Nemba,Rubona,Ku gatare,Rejected,Technical,1013228,Suspended,0.0,-1.55931,29.88196,0.0,Project Assessment - 2018.9.2,Rebero,Cyabarenge,Kinkware,Buhore,Kanyaru,a1if1000002WLVXAA4,006f100000d75zj,"Rebero, Cyabarenge, Kinkware, Buhore, Kanyaru",
1174,Rwanda,Northern Province,Burera,Nemba,Kivumu,Kwa Sibomana,Rejected,Technical,1013235,Suspended,0.0,-1.5999299999999999,29.857020000000002,0.0,Project Assessment - 2018.9.2,Songorero,Gasanzwe,Buhira,Buturuba,Cyave,a1if1000002WLZeAAO,006f100000d760I,"Songorero, Gasanzwe, Buhira, Buturuba, Cyave",Songorero
1176,Rwanda,Southern Province,Nyamagabe,Kamegeri,Kizi-Gasumba,Kagarama,Identified,Requested,1013226,Suspension,62.0,-2.51784,29.58812833,0.0,Project Assessment - 2018.9.2,Kagarama,Kinyana,Gitwa,Kinombe,Nyarusiza,a1if1000002WLQIAA4,006f100000d75zZ,"Kagarama, Kinyana, Gitwa, Kinombe, Nyarusiza",
1177,Rwanda,Northern Province,Burera,Nemba,Kivumu,Kabubandi (Kwa mutayumba),Rejected,Technical,1013240,Suspended,0.0,-1.6032,29.858259999999998,0.0,Project Assessment - 2018.9.2,Mugano,Songorero,Buturuba,Buhira,Gasanzwe,a1if1000002WM3oAAG,006f100000d760h,"Mugano, Songorero, Buturuba, Buhira, Gasanzwe",
1178,Rwanda,Southern Province,Nyamagabe,Kamegeri,Kamegeri,Kinyovu,Rejected,Technical,1013224,Suspension,0.0,-2.50159333,29.54305167,0.0,Project Assessment - 2018.9.2,Kinyovu,Sovu,Ryanyirataba,Gasharu,Nyentanga,a1if1000002WLPAAA4,006f100000d75zP,"Kinyovu, Sovu, Ryanyirataba, Gasharu, Nyentanga",
1180,Rwanda,Southern Province,Nyamagabe,Kamegeri,Kirehe-Kamegeri,Ryanyirataba,Rejected,Technical,1013221,Suspended,0.0,-2.50142333,29.555740000000004,0.0,Project Assessment - 2018.9.2,Ryanyirataba,Kinyovu,Gasharu,Gasaka,Kamiro,a1if1000002WLEgAAO,006f100000d75zA,"Ryanyirataba, Kinyovu, Gasharu, Gasaka, Kamiro",
1181,Rwanda,Southern Province,Nyamagabe,Kamegeri,Nzega-Bwama,Gitantu,Identified,Requested,1013231,Suspension,0.0,2.4955849999999997,29.58301667,0.0,Project Assessment - 2018.9.2,Gitantu,Kigarama(Bwama),Ryanyirataba,Gasharu,Kamiro,a1if1000002WLWaAAO,006f100000d75zy,"Gitantu, Kigarama(Bwama), Ryanyirataba, Gasharu, Kamiro",
1183,Rwanda,Southern Province,Muhanga,Kibangu,Gitega-Rubyiro,Cyuzu,Rejected,Technical,1013253,Suspension,0.0,-1.85356287,29.67139626,0.0,Project Assessment - 2018.9.2,Cyuzu,Gakurwe,Kaziba,Murehe,Bukiro,a1if1000002WMSPAA4,006f100000d761k,"Cyuzu, Gakurwe, Kaziba, Murehe, Bukiro",Cyuzu-Gakurwe
1184,Rwanda,Southern Province,Muhanga,Mushishiro,Nyagasozi,Gahama,Rejected,Technical,1013250,Suspended,0.0,-2.0290507,29.69007869,0.0,Project Assessment - 2018.9.2,Gihara village,Gasharu village,Kibonwa,Gisovu,Kanombe,a1if1000002WMQxAAO,006f100000d761V,"Gihara village, Gasharu village, Kibonwa, Gisovu, Kanombe",Gihara
1188,Rwanda,Southern Province,Muhanga,Kibangu,Mubuga-Gitega,Kwa Rukeratabaro,Identified,Requested,1013256,Suspended,42.0,-1.83836538,29.68433685,0.0,Project Assessment - 2018.9.2,Nyaruvumu,Nyarubuye,Mushubaguriko,Kinogi,Nkondo,a1if1000002WMTcAAO,006f100000d761z,"Nyaruvumu, Nyarubuye, Mushubaguriko, Kinogi, Nkondo",Nyaruvumu-Nkondo
1197,Rwanda,Western Province,Nyamasheke,Rangiro-Kanjongo,Murambi-Susa,Kavumu,Identified,Requested,1014119,Suspended,0.0,-2.37608,29.16455,0.0,Project Assessment - 2018.10.29,Munini,Murambi,Bunyenyezi,Nyarwungo,Susa,a1if1000002e6ihAAA,006f100000d1hDL,"Munini, Murambi, Bunyenyezi, Nyarwungo, Susa",
1198,Rwanda,Southern Province,Muhanga,Kibangu-Nyabinoni,Ryakamba-Gashorera,Burumba,Rejected,Technical,1013258,Suspension,0.0,-1.81408288,29.67507767,0.0,Project Assessment - 2018.9.2,Musekera,Nyamugari,Ryakiyange,Muzamuzi,Kinogi,a1if1000002WMUpAAO,006f100000d7629,"Musekera, Nyamugari, Ryakiyange, Muzamuzi, Kinogi",Musekera-Ryakiyange
1199,Rwanda,Western Province,Nyamasheke,Rangiro-Kagano,Murambi-Gako,Wambonye,Rejected,Technical,1014137,Suspended,0.0,-2.36102,29.148979999999998,0.0,Project Assessment - 2018.10.29,Bunyenyezi,Munini,Nyarwungo,Murambi,Remera-Rwisovu,a1if1000002e6kEAAQ,006f100000d1hI6,"Bunyenyezi, Munini, Nyarwungo, Murambi, Remera-Rwisovu",
1201,Rwanda,Northern Province,Burera,Nemba,Kivumu,Kwa mvunabandi,Rejected,Technical,1013237,Suspension,0.0,-1.61204,29.862990000000003,0.0,Project Assessment - 2018.9.2,Mugano,Rubuga,Buturuba,Songorero,Gashushura-Kigeyo-Nyamusanze,a1if1000002WLaXAAW,006f100000d760S,"Mugano, Rubuga, Buturuba, Songorero, Gashushura-Kigeyo-Nyamusanze",
1202,Rwanda,Western Province,Rusizi,Giheke,Giheke-Kigenge,Rugombo,Rejected,Technical,1014139,Suspended,0.0,-2.46906,28.95562,0.0,Project Assessment - 2018.10.29,Rugomba,Murambi,Wimana- Rwumvangoma,Gahinga-Kamuhozi,Isha-Rukombe,a1if1000002e6kdAAA,006f100000d1hIv,"Rugomba, Murambi, Wimana- Rwumvangoma, Gahinga-Kamuhozi, Isha-Rukombe",
1206,Rwanda,Western Province,Nyamasheke,Kanjongo,Kibogora-Kigarama,Bizenga,Identified,Requested,1014138,Suspended,44.0,-2.33616,29.1422,0.0,Project Assessment - 2018.10.29,Bizenga,Munini-Kagarama,Gakomeye,Gatare-Karehe,Karambi-Gisagara,a1if1000002e6kTAAQ,006f100000d1hIk,"Bizenga, Munini-Kagarama, Gakomeye, Gatare-Karehe, Karambi-Gisagara",
1207,Rwanda,Southern Province,Nyamagabe,Musange,Nyagisozi,Remera,Identified,Identified in Needs Assessment,1007469,Suspended,58.0,-2.213863,29.563708000000002,0.0,Project Assessment - 2018.9.4,Remera,Kabingo,Dusenyi,Mayebe,Rwesero,a1if1000002WfxbAAC,006f100000a86F7,"Remera, Kabingo, Dusenyi, Mayebe, Rwesero",
1209,Rwanda,Southern Province,Nyamagabe,Mbazi-Kaduha,Mutiwgoma,Mutiwingoma,Confirmed,,1007481,Suspension,126.0,-2.3640849999999998,29.553359000000004,0.0,Project Assessment - 2018.9.4,Kanyege,Mukongoro,Kabizira,Gatwa,"Kibumba,",a1if1000002WfxHAAS,006f100000a86FJ,"Kanyege, Mukongoro, Kabizira, Gatwa, Kibumba,",
1212,Rwanda,Southern Province,Nyamagabe,Musange,Gasave,Nyakabuye - Nkomane,Under Construction,,1007495,Suspended,75.0,-2.233574,29.575366,0.0,Project Assessment - 2018.9.4,Nyakabuye,Nyabivumu,Kabingo,Cyaruvunge,Gasura,a1if1000002WfyFAAS,006f100000a86FX,"Nyakabuye, Nyabivumu, Kabingo, Cyaruvunge, Gasura",
1223,Rwanda,Southern Province,Nyamagabe,Musange-Kabagari,Gasave,Nyakabuye - Mwogo,Under Construction,,1007507,Suspension,108.0,-2.2333694,29.575727,0.0,Project Assessment - 2018.9.4,Nyakabuye,Kabingo,Gasura,Nyabivume,Murambi,a1if1000002WfzNAAS,006f100000a86Fj,"Nyakabuye, Kabingo, Gasura, Nyabivume, Murambi",
1225,Rwanda,Northern Province,Rulindo,Rukuzo-Cyungo,Bwimo-Burehe,Bushyana,Rejected,Technical,1012798,Suspension,0.0,-1.63296,29.934379999999997,0.0,Project Assessment - 2018.8.17,Bushyana,Nyagatovu,Gahwazi,"Kavumu, kadendegeri","Mean a, Shyondwe",a1if1000002Vi6PAAS,006f100000d6kpN,"Bushyana, Nyagatovu, Gahwazi, Kavumu, kadendegeri, Mean a, Shyondwe",
1235,Rwanda,Western Province,Karongi,Gitesi,Gasharu,Nyarukeri,Rejected,Technical,1013548,Suspended,0.0,-2.14404,29.43463,0.0,Project Assessment - 2018.9.22,Nyarukeri village,Kinyami village,Karwiru village,Nyaruvumu village,Rurumbu village,a1if1000002YMEvAAO,006f100000d7azP,"Nyarukeri village, Kinyami village, Karwiru village, Nyaruvumu village, Rurumbu village",Kanyami-Nyarukeri
1239,Rwanda,Southern Province,Nyamagabe,Buruhukiro,Munyege-Uwdekezi,Uwamataba,Rejected,Technical,1007484,Suspension,40.0,-2.47437333,29.488815999999996,0.0,Project Assessment - 2018.9.1,Uwamataba,Birembo,Gatovu,Kimina,Mugote,a1if1000002WGqJAAW,006f100000a86FM,"Uwamataba, Birembo, Gatovu, Kimina, Mugote",
1240,Rwanda,Southern Province,Nyamagabe,Musebeya-Gatare,Rusekera,Shaki,Rejected,Technical,1007487,Suspension,13.0,-2.391707,29.435709000000003,0.0,Project Assessment - 2018.8.17,Shaki,Uwimituza,Rebero,Kibuburo,Kageyo,a1if1000002ViXBAA0,006f100000a86FP,"Shaki, Uwimituza, Rebero, Kibuburo, Kageyo",
1246,Rwanda,Southern Province,Nyamagabe,Buruhukiro-Gatare,Mukongoro,Kabingo,Rejected,Technical,1007480,Suspended,10.0,-2.395728,29.427630999999998,0.0,Project Assessment - 2018.8.17,Gifungwe,Gikungu,Bitaba,Rukwandu,Munini,a1if1000002ViXGAA0,006f100000a86FI,"Gifungwe, Gikungu, Bitaba, Rukwandu, Munini",
1251,Rwanda,Southern Province,Nyamagabe,Mushubi,Cyobe,Gitikirema-kigarama,Complete,In Service,1012817,Suspended,68.0,-2.3046740000000003,29.472585,0.0,Project Assessment - 2018.8.17,Nyarusazi,Giticyirema,Nyakirambi,Cyobe,Gaseka,a1if1000002ViWrAAK,006f100000d6kxF,"Nyarusazi, Giticyirema, Nyakirambi, Cyobe, Gaseka",
1256,Rwanda,Western Province,Karongi,Gitesi,Gasharu,Nyabununi,Identified,Requested,1013542,Suspension,0.0,-2.13809,29.4254,0.0,Project Assessment - 2018.9.22,Gasharu,Rwintare,Kirambo,Buye,Nyaruvumu,a1if1000002YMERAA4,006f100000d7ayl,"Gasharu, Rwintare, Kirambo, Buye, Nyaruvumu",Gasharu-Rwt
1257,Rwanda,Western Province,Karongi,Gitesi,Kirambo-Munanira,Gisiza,Rejected,Technical,1013551,Suspension,0.0,-2.11251,29.41945,0.0,Project Assessment - 2018.9.22,Kirambo,Gahigiro,Buye,Kinama,Nyarucyamo,a1if1000002YMFAAA4,006f100000d7aze,"Kirambo, Gahigiro, Buye, Kinama, Nyarucyamo",Kirambo-Gahigiro
1258,Rwanda,Western Province,Ngororero,Kabaya,Nyenyeri-Busunzu,Gitaba,Identified,Requested,1013547,Suspended,0.0,-1.7741200000000001,29.57416,0.0,Project Assessment - 2018.9.22,Gitaba village,Bukonde,Kabere,Kabusizi,Kirwa,a1if1000002YMEqAAO,006f100000d7azK,"Gitaba village, Bukonde, Kabere, Kabusizi, Kirwa",Bukonde-Gitaba
1259,Rwanda,Western Province,Ngororero,Kabaya-Kavumu,Mwendo-Birembo,Rubambira,Rejected,Technical,1013540,Suspended,0.0,-1.82053,29.547590000000003,0.0,Project Assessment - 2018.9.22,Rubambiro,Nyabarinda,Bukonde,Kantobo,Gashaki,a1if1000002YMEHAA4,006f100000d7ayR,"Rubambiro, Nyabarinda, Bukonde, Kantobo, Gashaki",Rubambiro-Buhuma
1261,Rwanda,Western Province,Karongi,Gitesi,Kirambo-Ruhga,Rukombe,Rejected,Technical,1013545,Suspension,0.0,-2.11248,29.422690000000003,0.0,Project Assessment - 2018.9.22,Kirambo village,Gahigiro village,Nyarubuye village,Gasayo village,Muramba village,a1if1000002YMEgAAO,006f100000d7azA,"Kirambo village, Gahigiro village, Nyarubuye village, Gasayo village, Muramba village",Kirambo-Nyarubuye
1264,Rwanda,Western Province,Ngororero,Kabaya-Muringa,,Nyanza,Identified,Requested,1013539,Suspension,0.0,-1.74082,29.537770000000002,0.0,Project Assessment - 2018.9.22,Nyanza,Kamajanga,Gisoro,Kimisagara,Muremure,a1if1000002YMECAA4,006f100000d7ayM,"Nyanza, Kamajanga, Gisoro, Kimisagara, Muremure",Nyanza-Kamajanga
1265,Rwanda,Western Province,Karongi,Gitesi,Munanira-Ruhga,Nyarubuye,Rejected,Technical,1013543,Suspension,0.0,-2.10774,29.420379999999998,0.0,Project Assessment - 2018.9.22,Gahigiro village,Nyarubuye village,Munanira village,Gasayo village,Nyarucyamo village,a1if1000002YMEWAA4,006f100000d7ayv,"Gahigiro village, Nyarubuye village, Munanira village, Gasayo village, Nyarucyamo village",Gahigiro-Nyarubuye
1267,Rwanda,Western Province,Karongi,Gitesi,Ruhga,Gisiza Ya Ruhinga,Rejected,Technical,1013553,Suspension,0.0,-2.1158900000000003,29.4245,0.0,Project Assessment - 2018.9.22,Nyarubuye,Muramba,Nyaruvumu,Nyabikati,Gasharu,a1if1000002YMFKAA4,006f100000d7azo,"Nyarubuye, Muramba, Nyaruvumu, Nyabikati, Gasharu",Nyarubuye-Muramba
1275,Rwanda,Eastern Province,Kayonza,Rwinkwavu,Nkondo,Bisiniya,Rejected,Social,1013621,Suspension,0.0,-1.95182,30.59996,0.0,Project Assessment - 2018.9.27,Seka,Nkondo,Kinihira,Akayebe,Brigade,a1if1000002Ys6GAAS,006f100000d7i95,"Seka, Nkondo, Kinihira, Akayebe, Brigade",
1280,Rwanda,Eastern Province,Kayonza,Rwinkwavu,Nkondo,Barage,Rejected,Technical,1013622,Suspension,0.0,-1.9515200000000001,30.599120000000003,0.0,Project Assessment - 2018.9.27,Seka,Akayebe,Nkondo,Kinihira,Brigade,a1if1000002YsSbAAK,006f100000d7iJP,"Seka, Akayebe, Nkondo, Kinihira, Brigade",
1351,Rwanda,Western Province,Ngororero,Nyange-Mushishiro,Bambiro-Rwas,Kiriza,Rejected,Technical,1013453,Suspended,0.0,-2.03409,29.63099,0.0,Project Assessment - 2018.9.15,Nyarushubi,Gakoma,Bugabe,Muzi,Murambi,a1if1000002Y9yKAAS,006f100000d7Pqr,"Nyarushubi, Gakoma, Bugabe, Muzi, Murambi",Nyarushubi-Bahimba
1354,Rwanda,Western Province,Ngororero,Nyange-Murundi,Gaseke-Kama,Nyabisindu,Rejected,Technical,1013454,Suspension,0.0,-2.08128,29.617309999999996,0.0,Project Assessment - 2018.9.15,Gaseke,Giko,Dutwe,Ngobagoba,Kirehe,a1if1000002Y9yPAAS,006f100000d7Pqw,"Gaseke, Giko, Dutwe, Ngobagoba, Kirehe",Gaseke-Kirehe
1355,Rwanda,Western Province,Ngororero,Ndaro,Bijyojyo-Kabageshi,Rukombe,Identified,Requested,1013452,Suspended,0.0,-1.98911,29.60512,0.0,Project Assessment - 2018.9.15,Rutonde,Masoro,Gasave,Birima,Bijyojyo,a1if1000002Y9yFAAS,006f100000d7PqS,"Rutonde, Masoro, Gasave, Birima, Bijyojyo",Rutonde-Masoro
1356,Rwanda,Western Province,Ngororero,Ndaro,Bitabage-Kiba,Karuhanga,Identified,Requested,1013455,Suspension,0.0,-2.00323,29.5765,0.0,Project Assessment - 2018.9.15,Gasharu,Runyoni,Rwamikeri,Kimirehe,Butambiro,a1if1000002Y9yUAAS,006f100000d7Pr1,"Gasharu, Runyoni, Rwamikeri, Kimirehe, Butambiro",Gasharu-Kimirehe
1357,Rwanda,Western Province,Ngororero,Bwira,Kabarondo,Kivugiza,Under Construction,,1013457,Suspended,53.0,-1.94955,29.56793,0.0,Project Assessment - 2018.9.15,Kurushishi,Mukingi,Gitarama,Bereshi,Rutembo,a1if1000002Y9yeAAC,006f100000d7PrB,"Kurushishi, Mukingi, Gitarama, Bereshi, Rutembo",Kurushishi-Mukgi
1359,Rwanda,Western Province,Ngororero,Bwira,Kabarondo,Kireka,Rejected,Technical,1013458,Suspension,0.0,-1.96626,29.574640000000002,0.0,Project Assessment - 2018.9.15,Kurushishi,Bereshi,Rusebeye,Mukingi,Rwamakara,a1if1000002Y9yjAAC,006f100000d7PrG,"Kurushishi, Bereshi, Rusebeye, Mukingi, Rwamakara",Kurushishi-Bereshi
1360,Rwanda,Western Province,Ngororero,Bwira-Sovu,Gashubi-Kanyana,Rugeshi,Identified,Requested,1013459,Suspension,110.0,-1.96038,29.540359999999996,0.0,Project Assessment - 2018.9.15,Rugeshi,Ruhuha,Kideberi,Ngugu,Ruganda,a1if1000002Y9yoAAC,006f100000d7PrL,"Rugeshi, Ruhuha, Kideberi, Ngugu, Ruganda",Rugeshi-Ruga
1361,Rwanda,Western Province,Ngororero,Bwira-Sovu,Gashubi-Kanyana,Gasasa,Identified,Requested,1013460,Suspended,42.0,-1.95373,29.54198,0.0,Project Assessment - 2018.9.15,Ruganda,Gasasa,Ngugu,Bitaba,Gahombo,a1if1000002Y9ytAAC,006f100000d7PrQ,"Ruganda, Gasasa, Ngugu, Bitaba, Gahombo",Gasasa-Ruga
1362,Rwanda,Western Province,Ngororero,Bwira-Sovu,Bungwe-Rutovu,Nyabiyonga,Identified,Requested,1013461,Suspended,0.0,-1.9421599999999999,29.55835,0.0,Project Assessment - 2018.9.15,Rutembo,Gasiza,Gasasa,Rukeri,Bereshi,a1if1000002Y9yyAAC,006f100000d7PrV,"Rutembo, Gasiza, Gasasa, Rukeri, Bereshi",Rutembo-Gisiza
1364,Rwanda,Eastern Province,Nyagatare,Mimuri-Rukomo,Rugari-Gahurura,Rujuga,Rejected,Technical,1014252,Suspension,0.0,-1.42013,30.26972,0.0,Project Assessment - 2018.11.11,Isangano,Ubumwe,Akamonyi - Inteko,Busasamana - Number 1,Ubumwe (Rukomo) - Ruyonza,a1if1000002fiyMAAQ,006f100000eekWd,"Isangano, Ubumwe, Akamonyi - Inteko, Busasamana - Number 1, Ubumwe (Rukomo) - Ruyonza",
1366,Rwanda,Eastern Province,Nyagatare,Mimuri,Bib-Mahoro,Nyakagende,Rejected,Technical,1014248,Suspension,0.0,-1.4611100000000001,30.233209999999996,0.0,Project Assessment - 2018.11.11,Nyakagende,Karukwanza - Nyaruziba,Bibare centre - Rwimirama,Mizero - Nyabugogo,Shenga - Cyambwana,a1if1000002fissAAA,006f100000eekWJ,"Nyakagende, Karukwanza - Nyaruziba, Bibare centre - Rwimirama, Mizero - Nyabugogo, Shenga - Cyambwana",
1368,Rwanda,Eastern Province,Nyagatare,Mukama-Mimuri,Gishororo-Mahoro,Kisaro,Rejected,Technical,1014244,Suspended,0.0,-1.45106,30.207140000000003,0.0,Project Assessment - 2018.11.11,Kisaro,Kabukunzu,Kabeza - Kinyambo,Cyambwana,Iterambere - Shenga - Gitwe,a1if1000002filrAAA,006f100000eekVu,"Kisaro, Kabukunzu, Kabeza - Kinyambo, Cyambwana, Iterambere - Shenga - Gitwe",
1369,Rwanda,Eastern Province,Nyagatare,Rukomo-Mimuri,Gahurura-Rugari,Ubumwe,Rejected,Technical,1007457,Suspension,20.0,-1.42439,30.263540000000003,0.0,Project Assessment - 2018.11.11,Ubumwe,Isangano,Nteko,Busasamana - No1 village,Ubumwe (Rukomo) - Ruyonza,a1if1000002fj5XAAQ,006f100000a86Ev,"Ubumwe, Isangano, Nteko, Busasamana - No1 village, Ubumwe (Rukomo) - Ruyonza",
1376,Rwanda,Eastern Province,Nyagatare,Karama,Gikagati-Ndego,Gishenyi,Rejected,Technical,1014255,Suspended,0.0,-1.3683,30.171809999999997,0.0,Project Assessment - 2018.11.11,Gishenyi,Gataba,Kanyami,Ndego Center,Rutoma,a1if1000002fj3HAAQ,006f100000eekWx,"Gishenyi, Gataba, Kanyami, Ndego Center, Rutoma",
1381,Rwanda,Eastern Province,Nyagatare,Mukama-Gatunda,Kaga-Cyagaju,Nyagatare,Rejected,Technical,1014253,Suspension,0.0,-1.42836,30.1828,0.0,Project Assessment - 2018.11.11,Nyagatare,Nyakagarama,Cyabahurura,Iramiro,Kibisabo,a1if1000002fizeAAA,006f100000eekWi,"Nyagatare, Nyakagarama, Cyabahurura, Iramiro, Kibisabo",
1384,Rwanda,Eastern Province,Nyagatare,Mimuri,Rugari,Kubwamariko,Rejected,Technical,1014249,Suspension,0.0,-1.43877,30.25549,0.0,Project Assessment - 2018.11.11,Ubumwe,Rebero,Amahoro - Indahemuka,Cyibihanga,Ibitabo - Nyakajeje,a1if1000002fivSAAQ,006f100000eekWO,"Ubumwe, Rebero, Amahoro - Indahemuka, Cyibihanga, Ibitabo - Nyakajeje",
1385,Rwanda,Eastern Province,Nyagatare,Mimuri-Mukama,Rugari-Bufunda,Ubumwe I,Identified,Requested,1014250,Suspension,0.0,-1.43737,30.2538,0.0,Project Assessment - 2018.11.11,Ubumwe,Rebero,Amahoro - Indahemuka,Cyibihanga,Ibitabo - Nyakajeje,a1if1000002fixOAAQ,006f100000eekWT,"Ubumwe, Rebero, Amahoro - Indahemuka, Cyibihanga, Ibitabo - Nyakajeje",
1386,Rwanda,Eastern Province,Nyagatare,Karama,Ndego,Kanyami,Rejected,Technical,1014243,Suspension,0.0,-1.36537,30.170920000000002,0.0,Project Assessment - 2018.11.11,Kanyami,Ndego Center,Rutoma,Gishenyi,Gataba,a1if1000002fikAAAQ,006f100000eekVk,"Kanyami, Ndego Center, Rutoma, Gishenyi, Gataba",
1387,Rwanda,Eastern Province,Nyagatare,Mimuri,Rugari,Isangano I,Rejected,Technical,1014251,Suspension,0.0,-1.4216,30.270979999999998,0.0,Project Assessment - 2018.11.11,Isangano,Ubumwe,Akamonyi - Nteko,Busasamana - No1,Ubumwe (Rukomo) - Ruyonza,a1if1000002fixsAAA,006f100000eekWY,"Isangano, Ubumwe, Akamonyi - Nteko, Busasamana - No1, Ubumwe (Rukomo) - Ruyonza",
1392,Rwanda,Eastern Province,Nyagatare,Kiyombe,Karujumba,Katoma,Rejected,Technical,1014246,Suspension,0.0,-1.4426299999999999,30.15516,0.0,Project Assessment - 2018.11.11,Katoma,Ngangare,Nyange - Kajevuba,Kagorogoro,Cyenzizi - Mushesha,a1if1000002findAAA,006f100000eekW9,"Katoma, Ngangare, Nyange - Kajevuba, Kagorogoro, Cyenzizi - Mushesha",
1394,Rwanda,Eastern Province,Nyagatare,Katabagemu-Ngarama,Rugazi-Kigasha,Burera,Rejected,Technical,1014247,Suspension,0.0,-1.52911,30.30129,0.0,Project Assessment - 2018.11.11,Burera,Kanyesunzu,Igitego,Kirongo,Kagarama,a1if1000002fisOAAQ,006f100000eekWE,"Burera, Kanyesunzu, Igitego, Kirongo, Kagarama",
1403,Rwanda,Eastern Province,Nyagatare,Karama,Ndego,Kavu,Rejected,Technical,1014245,Suspended,0.0,-1.3529200000000001,30.144000000000002,0.0,Project Assessment - 2018.11.11,Mishasha,Rubanda,Kabeza,Mutete,Kababanda,a1if1000002fin9AAA,006f100000eekVz,"Mishasha, Rubanda, Kabeza, Mutete, Kababanda",
1418,Rwanda,Southern Province,Nyaruguru,Busanze,Mirdi-Gabiro,Runyombya,Identified,Identified in Needs Assessment,1009313,Suspended,0.0,-2.77142,29.529766,0.0,Project Assessment - 2018.9.28,Murambi,Runyami,Uwinteko,Mirindi,Gabiro,a1if1000002YtFYAA0,006f100000asF27,"Murambi, Runyami, Uwinteko, Mirindi, Gabiro",
1419,Rwanda,Southern Province,Nyaruguru,Busanze,Nteko-Runyombyi,Ndatemwa,Rejected,Technical,1007592,Suspension,8.0,-2.78607,29.53833,0.0,Project Assessment - 2018.9.28,Ndatemwa,Nteko,Gisoro,Kabavomo,Nyarusange,a1if1000002YtFOAA0,006f100000a86H6,"Ndatemwa, Nteko, Gisoro, Kabavomo, Nyarusange",Ndatemwa-Shwima
1436,Rwanda,Western Province,Nyamasheke,Macuba,Gat,Peru,Rejected,Technical,1013563,Suspended,0.0,-2.3047470000000003,29.219334000000003,0.0,Project Assessment - 2018.9.23,Wimana,Buhoro,Kayenzi,Rugarama,Gashwi,a1if1000002YMvvAAG,006f100000d7b66,"Wimana, Buhoro, Kayenzi, Rugarama, Gashwi",
1437,Rwanda,Western Province,Nyamasheke,Karambi-Macuba,Gasovu-Gat,Murambi,Rejected,Technical,1013564,Suspended,0.0,-2.3111759999999997,29.239786,0.0,Project Assessment - 2018.9.23,Murambi,Gitwa,Rubona,Gaseke,Ryasagahara,a1if1000002YMw0AAG,006f100000d7b6B,"Murambi, Gitwa, Rubona, Gaseke, Ryasagahara",
1438,Rwanda,Western Province,Nyamasheke,Karambi,Kabuga,Mugohe~Bugarama,Rejected,Technical,1013560,Suspended,0.0,-2.316496,29.218564,0.0,Project Assessment - 2018.9.23,Mugohe,Rugano,Kamukiza,Bugarama,"Gaseke, Munini",a1if1000002YMvgAAG,006f100000d7b5r,"Mugohe, Rugano, Kamukiza, Bugarama, Gaseke, Munini",
1439,Rwanda,Western Province,Nyamasheke,Macuba-Karambi,Gat-Gitwe,Mubaneri,Identified,Requested,1013561,Suspended,0.0,-2.2933630000000003,29.238419,0.0,Project Assessment - 2018.9.23,Gashwi,Murama,Rugarama,Giti,Kamagesi,a1if1000002YMvlAAG,006f100000d7b5w,"Gashwi, Murama, Rugarama, Giti, Kamagesi",
1441,Rwanda,Western Province,Nyamasheke,Macuba-Karambi,Gat-Kagarama,Murama,Rejected,Technical,1013569,Suspended,0.0,-2.301919,29.242738,0.0,Project Assessment - 2018.9.23,Murama,Gaseke,Gashwi,Tetero,Rubona,a1if1000002YMwPAAW,006f100000d7b6a,"Murama, Gaseke, Gashwi, Tetero, Rubona",
1455,Rwanda,Eastern Province,Gatsibo,Nyagihanga,Nyamirama,Kacyiru,Rejected,Technical,1014536,Suspended,0.0,-1.59976,30.208909999999996,0.0,Project Assessment - 2018.11.26,Burembo,Karama,Butumba,Rugogwe,Kabuga,a1if1000002hCdXAAU,006f100000ef87L,"Burembo, Karama, Butumba, Rugogwe, Kabuga",
1457,Rwanda,Eastern Province,Gatsibo,Nyagihanga,Nyamirama,Bitumba,Rejected,Technical,1014537,Suspended,0.0,-1.60164,30.19772,0.0,Project Assessment - 2018.11.26,Bitumba,Karama,Kabuga,Rugogwe,Burembo,a1if1000002hCdwAAE,006f100000ef87a,"Bitumba, Karama, Kabuga, Rugogwe, Burembo",
1465,Rwanda,Eastern Province,Rwamagana,Fumbwe,Nyakagunga-Nyamirama,Kibaza,Rejected,Technical,1014540,Suspended,0.0,-1.8687900000000002,30.281840000000003,0.0,Project Assessment - 2018.11.26,Kibaza,Kirehe,Rugarama,Kagarama,Gatare,a1if1000002hCeuAAE,006f100000ef889,"Kibaza, Kirehe, Rugarama, Kagarama, Gatare",
1470,Rwanda,Western Province,Ngororero,Muhororo-Ngororero,Gasovu-Rwambarira,Gasovu,Rejected,Technical,1012544,Suspension,0.0,-1.8859700000000001,29.651,0.0,Project Assessment - 2018.8.4,Gasovu,Murambi,Gashonyi,Nyabigogoro,Rwambariro,a1if10000025YRBAA2,006f100000dhpCW,"Gasovu, Murambi, Gashonyi, Nyabigogoro, Rwambariro",
